{"type": "FeatureCollection", "features": [{"type": "Feature", "properties": {"name": "Hudson River"}, "geometry": {"type": "MultiPolygon", "coordinates": [[[[-73.9916448, 40.8768279], [-73.9914323, 40.8764665], [-73.9918126, 40.8762838], [-73.9921239, 40.8766273], [-73.9916448, 40.8768279]]], [[[-73.9913328, 40.8830331], [-73.9921562, 40.8824817], [-73.9928961, 40.881263], [-73.9920398, 40.8807916], [-73.9938016, 40.8811226], [-73.9943707, 40.8808004], [-73.9953927, 40.8810334], [-73.9948758, 40.8820555], [-73.9944995, 40.8819254], [-73.9943074, 40.8812004], [-73.993684, 40.8812952], [-73.9938944, 40.8820958], [-73.9931992, 40.882869], [-73.9929803, 40.8836335], [-73.9922082, 40.8831335], [-73.9914816, 40.8834165], [-73.9913328, 40.8830331]]], [[[-73.9920011, 40.8835656], [-73.9920441, 40.8838688], [-73.9913443, 40.883691], [-73.9916893, 40.8834573], [-73.9920011, 40.8835656]]], [[[-74.0232345, 40.9455725], [-74.0235242, 40.9458947], [-74.0231953, 40.9471621], [-74.0247755, 40.9477141], [-74.0254928, 40.9489117], [-74.0269624, 40.9481581], [-74.0264663, 40.947099], [-74.0262565, 40.9457466], [-74.0264986, 40.9457323], [-74.0268788, 40.9475654], [-74.0283701, 40.9495003], [-74.0295943, 40.9522722], [-74.029686, 40.9532254], [-74.0291092, 40.9539767], [-74.0279793, 40.952424], [-74.0279149, 40.9514374], [-74.0284564, 40.9504215], [-74.0277728, 40.950307], [-74.0268501, 40.9491442], [-74.0251013, 40.9489923], [-74.0245863, 40.9477686], [-74.0228858, 40.9470818], [-74.0231755, 40.945998], [-74.0223471, 40.9454005], [-74.0225429, 40.9442513], [-74.0227385, 40.9445782], [-74.0237108, 40.9447974], [-74.0227709, 40.944769], [-74.0232345, 40.9455725]]], [[[-73.9940791, 40.9502552], [-73.9940622, 40.950293], [-73.9939505, 40.9502808], [-73.9939613, 40.9502348], [-73.9940791, 40.9502552]]], [[[-73.9937033, 40.9805907], [-73.9928953, 40.9804508], [-73.9929574, 40.9797348], [-73.9953437, 40.9791171], [-73.996572, 40.9803648], [-73.9978317, 40.9809469], [-73.9992708, 40.9811032], [-73.9983312, 40.9813214], [-73.9991051, 40.9814906], [-73.9989386, 40.9818524], [-73.9994329, 40.9823658], [-73.999018, 40.9823858], [-73.9987071, 40.981594], [-73.9973818, 40.9816733], [-73.9970353, 40.9810785], [-73.9953329, 40.9802879], [-73.9937033, 40.9805907]]], [[[-74.0141316, 40.9889116], [-74.0153378, 40.9888215], [-74.0167622, 40.9894499], [-74.0164619, 40.9899512], [-74.016689, 40.9894344], [-74.015422, 40.9890393], [-74.0137247, 40.9894379], [-74.0134003, 40.9891932], [-74.0141316, 40.9889116]]], [[[-73.9962511, 41.3568882], [-73.9967661, 41.3563487], [-73.9960741, 41.3566869], [-73.9954036, 41.3566104], [-73.9940895, 41.3575244], [-73.993655, 41.3572989], [-73.9931025, 41.357915], [-73.99255, 41.3577016], [-73.9951836, 41.3555796], [-73.9963378, 41.3554485], [-73.9976513, 41.3562158], [-73.9973838, 41.356725], [-73.9980168, 41.3572927], [-73.9990245, 41.3564816], [-73.9994215, 41.3566748], [-73.999223, 41.357311], [-73.9980965, 41.3580318], [-73.9972865, 41.357919], [-73.997029, 41.3574358], [-73.9964133, 41.35751], [-73.9962511, 41.3568882]]], [[[-74.0180999, 41.4433698], [-74.0188038, 41.4430617], [-74.0192661, 41.4435514], [-74.0186259, 41.4436826], [-74.0180999, 41.4433698]]], [[[-74.0223355, 41.4567971], [-74.0210793, 41.4564923], [-74.0206207, 41.4567777], [-74.0214318, 41.4570576], [-74.0206103, 41.4569881], [-74.0182264, 41.4560669], [-74.0186406, 41.4572166], [-74.0178645, 41.4563782], [-74.0177021, 41.4546647], [-74.0171924, 41.4547993], [-74.016644, 41.4536787], [-74.0163771, 41.4537678], [-74.0161227, 41.454818], [-74.0137547, 41.4577734], [-74.0125574, 41.460871], [-74.0112848, 41.4621401], [-74.0121752, 41.462377], [-74.0111726, 41.4626832], [-74.0118401, 41.4630436], [-74.0120258, 41.4644707], [-74.0145319, 41.4665208], [-74.0132392, 41.4696309], [-74.010937, 41.480223], [-74.0104652, 41.4805777], [-74.009881, 41.480503], [-74.0099026, 41.4817154], [-74.009105, 41.482671], [-74.008495, 41.482638], [-74.0089108, 41.4827953], [-74.008608, 41.482775], [-74.008719, 41.4834658], [-74.0072087, 41.4872754], [-74.007189, 41.4875385], [-74.0080527, 41.4879304], [-74.006646, 41.4880029], [-74.0085885, 41.4885103], [-74.0086372, 41.4889144], [-74.0075078, 41.4907018], [-74.0064672, 41.4907544], [-74.0063438, 41.4919008], [-74.0059318, 41.492129], [-74.0062018, 41.4921187], [-74.0063057, 41.4929303], [-74.0057514, 41.4958686], [-74.0052741, 41.4963155], [-74.0048386, 41.4975274], [-74.0052146, 41.4981929], [-74.005089, 41.4986203], [-74.0055917, 41.4987262], [-74.0056518, 41.4990477], [-74.0047487, 41.5019049], [-74.0050543, 41.5029273], [-74.0045281, 41.5043472], [-74.004597, 41.5057257], [-74.0054063, 41.5094057], [-74.0054231, 41.5123294], [-74.0057674, 41.5136513], [-74.0067306, 41.5154014], [-74.006426, 41.5161584], [-74.005924, 41.5159717], [-74.0055882, 41.5140664], [-74.0057438, 41.516029], [-74.0063254, 41.5162468], [-74.0062265, 41.5168078], [-74.0066131, 41.5171669], [-74.0059041, 41.5175402], [-74.0058722, 41.5186381], [-74.0063899, 41.5198724], [-74.0056174, 41.5217553], [-74.0058063, 41.5231498], [-74.0054635, 41.5251153], [-74.0044335, 41.5265097], [-74.0048455, 41.5271009], [-74.0045022, 41.5282511], [-74.0000663, 41.5350054], [-73.9987053, 41.5385544], [-73.9985284, 41.5418589], [-73.9960135, 41.5483727], [-73.9933013, 41.5510898], [-73.9881944, 41.5549308], [-73.9868039, 41.5553033], [-73.9867782, 41.5560163], [-73.9850615, 41.5567677], [-73.9850959, 41.5572559], [-73.9845466, 41.557744], [-73.9832591, 41.5580972], [-73.9827956, 41.5590413], [-73.9759292, 41.5642626], [-73.9762722, 41.5647087], [-73.9754079, 41.5642333], [-73.9745387, 41.5652708], [-73.9725989, 41.5665744], [-73.9720754, 41.5665937], [-73.9699897, 41.5677881], [-73.9679212, 41.5693422], [-73.9670457, 41.5708897], [-73.9653462, 41.5721418], [-73.9644622, 41.5723281], [-73.9635352, 41.573272], [-73.9629799, 41.5744125], [-73.9646338, 41.5751918], [-73.9651059, 41.5759623], [-73.9632342, 41.5787734], [-73.9625287, 41.5792936], [-73.9625193, 41.5797841], [-73.9595148, 41.5846823], [-73.9591351, 41.5899859], [-73.9600513, 41.5936239], [-73.9608085, 41.5986175], [-73.9445629, 41.5986358], [-73.9479312, 41.5916657], [-73.9504718, 41.5897977], [-73.9507636, 41.5892199], [-73.9500855, 41.5883854], [-73.9504117, 41.5875765], [-73.9509095, 41.5876792], [-73.951095, 41.587168], [-73.9508726, 41.5856056], [-73.950254, 41.5854049], [-73.9496115, 41.5860088], [-73.9487294, 41.5861898], [-73.9481816, 41.5856287], [-73.947648, 41.5842703], [-73.9474763, 41.5802128], [-73.9481029, 41.5777344], [-73.948944, 41.576155], [-73.9510726, 41.5725207], [-73.9565915, 41.5653736], [-73.9596642, 41.562869], [-73.9638632, 41.5587407], [-73.9681443, 41.5554896], [-73.969302, 41.5549757], [-73.9698657, 41.5551473], [-73.9704565, 41.5544853], [-73.9699001, 41.5541673], [-73.9700093, 41.553579], [-73.9717139, 41.5510928], [-73.9721869, 41.5510705], [-73.9719697, 41.5506365], [-73.9750966, 41.5442551], [-73.9764613, 41.5403492], [-73.9770621, 41.5397132], [-73.9770278, 41.539392], [-73.9765493, 41.5391917], [-73.9767531, 41.5382805], [-73.977645, 41.5380859], [-73.9770677, 41.5376428], [-73.9779985, 41.5354208], [-73.9789418, 41.5351453], [-73.9791392, 41.5342779], [-73.9798602, 41.534702], [-73.9803323, 41.5345349], [-73.9824013, 41.531757], [-73.982092, 41.5316002], [-73.9829244, 41.529594], [-73.9818858, 41.5285723], [-73.9821605, 41.5280005], [-73.9820575, 41.5272101], [-73.9828385, 41.5248904], [-73.9839801, 41.5244599], [-73.9835226, 41.52367], [-73.9848751, 41.5208552], [-73.9856381, 41.5168166], [-73.9851342, 41.5090671], [-73.9872071, 41.5085909], [-73.9878978, 41.5077407], [-73.9852951, 41.5075829], [-73.985414, 41.5061602], [-73.9856269, 41.5061587], [-73.9855047, 41.5052393], [-73.9870779, 41.5051503], [-73.987155, 41.504822], [-73.9884493, 41.5049454], [-73.9886557, 41.5045568], [-73.9882227, 41.5042634], [-73.9885, 41.5040171], [-73.9874469, 41.5040404], [-73.9874929, 41.5036479], [-73.9888501, 41.5033789], [-73.9869056, 41.5031385], [-73.9852298, 41.5021192], [-73.9846149, 41.5008242], [-73.984533, 41.4993696], [-73.9834216, 41.4959812], [-73.9836019, 41.4927153], [-73.9843743, 41.4922203], [-73.9854644, 41.4927475], [-73.987078, 41.4918988], [-73.9872668, 41.4905744], [-73.9889618, 41.48728], [-73.9888547, 41.4855915], [-73.9892667, 41.4844342], [-73.9883826, 41.4832511], [-73.9876615, 41.4835494], [-73.9867948, 41.48482], [-73.9857458, 41.4873713], [-73.9851439, 41.4874256], [-73.9852001, 41.488787], [-73.9843057, 41.4901244], [-73.9825032, 41.4900344], [-73.9827787, 41.4896944], [-73.9813527, 41.4889881], [-73.9812374, 41.4883773], [-73.9793031, 41.4885265], [-73.9785413, 41.48798], [-73.9780827, 41.4871715], [-73.9775311, 41.4869907], [-73.9736259, 41.4890823], [-73.972798, 41.4893624], [-73.9713817, 41.4892239], [-73.9700371, 41.4902491], [-73.9692777, 41.4918946], [-73.9683493, 41.4930209], [-73.9680865, 41.4929683], [-73.9691349, 41.4914363], [-73.9695672, 41.4901908], [-73.9707326, 41.4893645], [-73.9711242, 41.4885448], [-73.9718699, 41.4884845], [-73.9725233, 41.4890795], [-73.9746826, 41.4881975], [-73.9768179, 41.4865517], [-73.9781169, 41.4850486], [-73.9804341, 41.483967], [-73.9814579, 41.4840592], [-73.9814014, 41.4845943], [-73.9817046, 41.4846134], [-73.9831212, 41.4790972], [-73.9841512, 41.4789428], [-73.9846318, 41.4782483], [-73.9846662, 41.4762677], [-73.9857745, 41.4707436], [-73.9847391, 41.469033], [-73.9849413, 41.469033], [-73.9850757, 41.4661009], [-73.9853478, 41.4660106], [-73.9851412, 41.4653084], [-73.9857221, 41.4620263], [-73.9847397, 41.4556228], [-73.9830209, 41.4507934], [-73.9790053, 41.4437238], [-73.9788423, 41.4423919], [-73.9770204, 41.4413998], [-73.9734864, 41.4378751], [-73.9683344, 41.4297082], [-73.9699261, 41.4259369], [-73.9681084, 41.4246534], [-73.9672366, 41.4246281], [-73.9667611, 41.425036], [-73.9655604, 41.4252524], [-73.9641136, 41.4230528], [-73.9638389, 41.4231558], [-73.9651093, 41.4252493], [-73.9642253, 41.4254038], [-73.9628863, 41.4235631], [-73.9621224, 41.4231834], [-73.961925, 41.4225977], [-73.9630775, 41.4223094], [-73.9637531, 41.4230014], [-73.9640363, 41.4229048], [-73.9624572, 41.4203837], [-73.962793, 41.4202519], [-73.9626768, 41.4200296], [-73.9622941, 41.4201198], [-73.961739, 41.419023], [-73.962797, 41.4178694], [-73.962512, 41.417034], [-73.9614676, 41.4160444], [-73.9616124, 41.4156416], [-73.9611869, 41.4158331], [-73.960394, 41.415016], [-73.95976, 41.414952], [-73.960755, 41.414286], [-73.9606317, 41.4140477], [-73.9593072, 41.4146874], [-73.9583229, 41.4139351], [-73.957388, 41.4140869], [-73.9553289, 41.4125664], [-73.9550983, 41.4127121], [-73.956068, 41.413718], [-73.954119, 41.41335], [-73.9526079, 41.4138414], [-73.9503888, 41.4134304], [-73.9493034, 41.4128397], [-73.9474206, 41.4132653], [-73.9488889, 41.4118439], [-73.9502692, 41.4115719], [-73.950664, 41.4119839], [-73.9527755, 41.4108059], [-73.9540715, 41.4119903], [-73.9549642, 41.4125632], [-73.9551787, 41.4124216], [-73.9531307, 41.4104263], [-73.9543548, 41.4101235], [-73.9558997, 41.4091129], [-73.9559855, 41.4087975], [-73.9554105, 41.4086687], [-73.9558139, 41.4080121], [-73.9585433, 41.4072911], [-73.9596763, 41.406583], [-73.9602599, 41.4057461], [-73.9596591, 41.4048705], [-73.9598308, 41.4035379], [-73.9579167, 41.4020121], [-73.9549384, 41.4021087], [-73.9529901, 41.4009949], [-73.9519109, 41.4014481], [-73.9513517, 41.4008623], [-73.9506984, 41.4014262], [-73.9495568, 41.4011043], [-73.9491878, 41.4016451], [-73.9467072, 41.4019799], [-73.9439435, 41.39596], [-73.9435573, 41.3945306], [-73.9442439, 41.3918199], [-73.9458146, 41.3897658], [-73.9465442, 41.389418], [-73.9474196, 41.3875055], [-73.9477801, 41.3850327], [-73.9476074, 41.3842699], [-73.947912, 41.3837442], [-73.9474469, 41.3829359], [-73.9479775, 41.3826242], [-73.9477098, 41.3817343], [-73.9480579, 41.3815789], [-73.9476659, 41.3814994], [-73.9475586, 41.3810974], [-73.9485955, 41.3790886], [-73.9487758, 41.3775686], [-73.9495139, 41.3762483], [-73.9499516, 41.3773625], [-73.9510074, 41.3771436], [-73.9530673, 41.3745287], [-73.9543719, 41.3691826], [-73.9568181, 41.3630824], [-73.9567752, 41.3627474], [-73.9563289, 41.3625799], [-73.9565435, 41.3530873], [-73.9571444, 41.3509095], [-73.9575537, 41.3475487], [-73.9583964, 41.3451644], [-73.9611964, 41.3404127], [-73.9615561, 41.3402646], [-73.9618136, 41.3407415], [-73.9632212, 41.3403226], [-73.9674784, 41.3376869], [-73.9688494, 41.3360584], [-73.9692983, 41.3337293], [-73.9706344, 41.3327212], [-73.9711474, 41.3329469], [-73.9722021, 41.3322826], [-73.9734232, 41.3306212], [-73.9731432, 41.3303527], [-73.9735981, 41.3300112], [-73.9741037, 41.3304301], [-73.9747997, 41.3292313], [-73.975495, 41.3289799], [-73.9772088, 41.3269672], [-73.9790671, 41.3229518], [-73.9788166, 41.3228244], [-73.9791853, 41.3228495], [-73.9805655, 41.3197762], [-73.9787834, 41.3170997], [-73.976976, 41.3151102], [-73.9732462, 41.3114786], [-73.9695469, 41.3090158], [-73.9672887, 41.3058627], [-73.9642431, 41.3035423], [-73.9639172, 41.3026436], [-73.9631233, 41.3029469], [-73.962381, 41.3026603], [-73.9624514, 41.3019354], [-73.9618499, 41.3025001], [-73.9580244, 41.3012835], [-73.9561227, 41.3001591], [-73.9531485, 41.2974163], [-73.9478052, 41.2957682], [-73.9471963, 41.2952936], [-73.9467489, 41.2954683], [-73.9385757, 41.2936739], [-73.9451623, 41.2952669], [-73.9448353, 41.2971416], [-73.945512, 41.2987802], [-73.942601, 41.298795], [-73.940907, 41.297723], [-73.9359592, 41.2966092], [-73.9356945, 41.2968266], [-73.93665, 41.297536], [-73.9357299, 41.2976121], [-73.935931, 41.2973743], [-73.9345618, 41.2968423], [-73.934201, 41.2970922], [-73.9342479, 41.2975043], [-73.9348689, 41.2986378], [-73.9340545, 41.2994587], [-73.9336637, 41.3008641], [-73.9320428, 41.3020144], [-73.9321069, 41.3016438], [-73.9315879, 41.3018315], [-73.9297044, 41.3035016], [-73.9285435, 41.3040894], [-73.9282655, 41.3046801], [-73.9286628, 41.305347], [-73.9284965, 41.305879], [-73.9291349, 41.3071241], [-73.9279494, 41.306556], [-73.9264935, 41.3082177], [-73.9273104, 41.3067491], [-73.9275806, 41.3055261], [-73.9273595, 41.3048378], [-73.9243928, 41.3051525], [-73.9218951, 41.3060214], [-73.9218081, 41.3058052], [-73.9250083, 41.3047656], [-73.9269303, 41.3045443], [-73.9274739, 41.3040915], [-73.9274519, 41.3031705], [-73.9282782, 41.3021608], [-73.9283237, 41.3016359], [-73.9304598, 41.3010417], [-73.9312076, 41.3000016], [-73.9309077, 41.2983406], [-73.9331704, 41.2970135], [-73.9361071, 41.2942093], [-73.9364862, 41.2932986], [-73.9377154, 41.2935963], [-73.9349656, 41.2925198], [-73.9318179, 41.2907422], [-73.9314712, 41.2890488], [-73.9309656, 41.2890125], [-73.9307839, 41.2884315], [-73.9321466, 41.2879329], [-73.931667, 41.2877947], [-73.9316355, 41.2863405], [-73.9329772, 41.2851917], [-73.932583, 41.2853882], [-73.9322665, 41.284839], [-73.93564, 41.2825881], [-73.9371527, 41.2821688], [-73.9372943, 41.2805518], [-73.9365231, 41.2797635], [-73.937026, 41.2788889], [-73.9375467, 41.2786153], [-73.9378809, 41.2789954], [-73.938299, 41.2787072], [-73.9387233, 41.2790212], [-73.9386104, 41.278684], [-73.9392021, 41.278593], [-73.9394628, 41.2789834], [-73.9404887, 41.2791292], [-73.9415011, 41.2781784], [-73.9436688, 41.2771387], [-73.9438042, 41.2761922], [-73.9430294, 41.274968], [-73.942775, 41.2738189], [-73.9422949, 41.2735808], [-73.9427414, 41.2742627], [-73.9422877, 41.2742627], [-73.9417405, 41.2735772], [-73.9407228, 41.2732543], [-73.9408864, 41.2725391], [-73.9414242, 41.2722604], [-73.9425386, 41.2725444], [-73.9435222, 41.2734075], [-73.9438692, 41.2727536], [-73.944229, 41.2727383], [-73.944791, 41.2741227], [-73.9470395, 41.2748506], [-73.9491305, 41.2741873], [-73.9493225, 41.27368], [-73.9517242, 41.272522], [-73.9520882, 41.2718125], [-73.9529587, 41.271436], [-73.9532076, 41.2709173], [-73.9537041, 41.2709761], [-73.954261, 41.2704425], [-73.9540466, 41.2703158], [-73.9565928, 41.2679749], [-73.9565733, 41.2674287], [-73.9624833, 41.2637931], [-73.9640309, 41.2622974], [-73.9649027, 41.2604708], [-73.965087, 41.2584908], [-73.9659627, 41.2559033], [-73.9659831, 41.2545253], [-73.9663259, 41.254015], [-73.96618, 41.2532341], [-73.9664379, 41.2531754], [-73.9665262, 41.2524991], [-73.965104, 41.2523154], [-73.9659797, 41.2504269], [-73.9653188, 41.24948], [-73.9644244, 41.2492065], [-73.9635636, 41.2482727], [-73.9605648, 41.2478123], [-73.9581303, 41.2480899], [-73.9542042, 41.2463397], [-73.9532394, 41.2456611], [-73.9530666, 41.2451991], [-73.9521737, 41.2450278], [-73.9535129, 41.2419549], [-73.9527887, 41.2411441], [-73.9527002, 41.2401054], [-73.9513752, 41.2392906], [-73.9513263, 41.2375648], [-73.9497952, 41.2366646], [-73.9479207, 41.2365694], [-73.9466787, 41.2375423], [-73.9447878, 41.2376404], [-73.9442927, 41.2372315], [-73.9434272, 41.2353559], [-73.9444818, 41.2345366], [-73.943657, 41.2335252], [-73.9431991, 41.2337823], [-73.943582, 41.2342391], [-73.9433791, 41.2345378], [-73.941535, 41.2353753], [-73.9409474, 41.2352573], [-73.94009, 41.2337743], [-73.9405922, 41.2334806], [-73.9404092, 41.2331125], [-73.9379447, 41.2328412], [-73.9373841, 41.2324312], [-73.9352223, 41.2326107], [-73.9348675, 41.2332047], [-73.9302825, 41.2332138], [-73.9299893, 41.2327079], [-73.9305528, 41.2321025], [-73.9304996, 41.2312577], [-73.929947, 41.2308875], [-73.9289688, 41.2308409], [-73.9279825, 41.2289473], [-73.9266046, 41.2279765], [-73.9272037, 41.2270209], [-73.9272135, 41.2264499], [-73.9267887, 41.2258678], [-73.9255074, 41.2260064], [-73.9246859, 41.2266422], [-73.9230806, 41.2256023], [-73.922008, 41.2244243], [-73.9187515, 41.2225843], [-73.9152359, 41.2198988], [-73.9134506, 41.2180975], [-73.9117558, 41.2157776], [-73.9118981, 41.2156216], [-73.9093585, 41.2137167], [-73.8981548, 41.2071284], [-73.8947866, 41.206333], [-73.8937267, 41.2056293], [-73.8939324, 41.2053147], [-73.8933447, 41.2049272], [-73.8927753, 41.2052159], [-73.8916109, 41.2040485], [-73.8914607, 41.2029754], [-73.892331, 41.2025138], [-73.8899062, 41.2017104], [-73.888534, 41.1997592], [-73.8882679, 41.198629], [-73.888687, 41.1960778], [-73.8899244, 41.1932363], [-73.8898641, 41.1914912], [-73.8930787, 41.1879821], [-73.8962799, 41.1855821], [-73.8971744, 41.1854537], [-73.8975891, 41.186356], [-73.9000631, 41.1860729], [-73.9003824, 41.1869552], [-73.9008202, 41.1872348], [-73.9014848, 41.1866772], [-73.9014475, 41.1835902], [-73.900957, 41.1824159], [-73.9011585, 41.1817593], [-73.8992625, 41.1805246], [-73.8981561, 41.1788316], [-73.8996595, 41.1756419], [-73.8996367, 41.1723369], [-73.8991486, 41.1715787], [-73.8993457, 41.1697081], [-73.8986416, 41.1684149], [-73.8976385, 41.1703633], [-73.8972469, 41.1728275], [-73.8969317, 41.1732474], [-73.8971356, 41.1737673], [-73.8967359, 41.1744406], [-73.894448, 41.1750847], [-73.8939464, 41.1763081], [-73.892372, 41.1768491], [-73.8915257, 41.1783007], [-73.8904367, 41.1791062], [-73.8895395, 41.1793282], [-73.889164, 41.1800227], [-73.8874018, 41.1808201], [-73.8854783, 41.1825108], [-73.8857697, 41.1836079], [-73.8862391, 41.1840671], [-73.8871658, 41.1828045], [-73.8866159, 41.1839945], [-73.8874608, 41.1837724], [-73.8869499, 41.1843397], [-73.8879973, 41.1850684], [-73.8869861, 41.1849695], [-73.8867299, 41.1844143], [-73.8863222, 41.1842831], [-73.8825873, 41.184809], [-73.8804331, 41.1847054], [-73.8801155, 41.1841693], [-73.8796014, 41.184262], [-73.8794426, 41.1847465], [-73.8809404, 41.1883202], [-73.8806734, 41.1886047], [-73.8810772, 41.1893971], [-73.8806494, 41.1902156], [-73.8809263, 41.1906521], [-73.8808177, 41.1908574], [-73.8801478, 41.190476], [-73.8797408, 41.190699], [-73.8799614, 41.1910477], [-73.8795322, 41.190695], [-73.8797535, 41.1904528], [-73.8790521, 41.1898351], [-73.8788322, 41.189056], [-73.8780771, 41.1889853], [-73.8786256, 41.1887159], [-73.8785733, 41.1884454], [-73.8777365, 41.1882335], [-73.8780704, 41.1878691], [-73.877774, 41.1873695], [-73.8783199, 41.1867266], [-73.8781616, 41.1861079], [-73.8767481, 41.1876229], [-73.8745835, 41.1885574], [-73.8743475, 41.1889167], [-73.8748834, 41.1893473], [-73.87512, 41.1889621], [-73.8753493, 41.1889793], [-73.8755129, 41.1891286], [-73.8751052, 41.1890933], [-73.8752192, 41.1896534], [-73.8740189, 41.1891297], [-73.8743623, 41.1895051], [-73.8740319, 41.1898013], [-73.874149, 41.1901823], [-73.874723, 41.191133], [-73.8757597, 41.1906284], [-73.8761111, 41.1908675], [-73.8752836, 41.1919282], [-73.8744235, 41.1921023], [-73.873795, 41.193666], [-73.8736509, 41.1967751], [-73.8727492, 41.1991636], [-73.8733233, 41.2002589], [-73.872655, 41.2028508], [-73.8730788, 41.2039173], [-73.8715097, 41.2059625], [-73.8710504, 41.2072903], [-73.8713568, 41.2072661], [-73.8713086, 41.209621], [-73.8691212, 41.212231], [-73.8672403, 41.2133797], [-73.8661147, 41.2147544], [-73.8671216, 41.2171098], [-73.8669057, 41.2175768], [-73.8657215, 41.2184514], [-73.8646889, 41.2185705], [-73.8633432, 41.2196425], [-73.8629594, 41.2212947], [-73.8610819, 41.2237257], [-73.858417, 41.2263457], [-73.8579825, 41.2271647], [-73.8573544, 41.2275036], [-73.8571079, 41.2271758], [-73.8578238, 41.2266781], [-73.8585955, 41.2254597], [-73.8599876, 41.2244843], [-73.8625035, 41.2210355], [-73.8632646, 41.2188923], [-73.8652286, 41.2162408], [-73.8656578, 41.2145096], [-73.8672242, 41.2128954], [-73.868973, 41.2119713], [-73.8709954, 41.2094087], [-73.8709022, 41.2056033], [-73.8722017, 41.2036883], [-73.8722868, 41.202426], [-73.8728072, 41.2016217], [-73.8727207, 41.2004634], [-73.871499, 41.1996662], [-73.8709103, 41.1982283], [-73.8729836, 41.1938355], [-73.8729823, 41.1935903], [-73.8726094, 41.1939486], [-73.8724686, 41.1935984], [-73.873162, 41.1917607], [-73.8720261, 41.1913197], [-73.8723399, 41.1910855], [-73.8721789, 41.1906768], [-73.8730124, 41.1889203], [-73.8741732, 41.1874119], [-73.8756352, 41.1865464], [-73.8761607, 41.1849664], [-73.8775849, 41.1838622], [-73.8772939, 41.1838077], [-73.8773945, 41.1831365], [-73.8765644, 41.1827197], [-73.8765335, 41.183186], [-73.8756457, 41.182859], [-73.8760427, 41.1831941], [-73.8756725, 41.1834414], [-73.8750865, 41.1821565], [-73.8755894, 41.1804522], [-73.8748544, 41.1799541], [-73.8752273, 41.1795019], [-73.8751522, 41.1782553], [-73.8757463, 41.1773761], [-73.8761996, 41.1775315], [-73.8791078, 41.183243], [-73.8794122, 41.1831557], [-73.8720294, 41.1684325], [-73.8700654, 41.1633225], [-73.870176, 41.1628464], [-73.8714565, 41.162235], [-73.8704541, 41.1623441], [-73.8702147, 41.1614796], [-73.869589, 41.161527], [-73.8708314, 41.1608133], [-73.8696728, 41.1607233], [-73.8707792, 41.1606473], [-73.8707852, 41.1603012], [-73.8699759, 41.1604154], [-73.8699459, 41.1601844], [-73.8707168, 41.1600905], [-73.8710995, 41.1589292], [-73.8721024, 41.1587757], [-73.8713577, 41.158175], [-73.8716884, 41.1577088], [-73.8706485, 41.1574188], [-73.8702605, 41.1563438], [-73.869967, 41.1563608], [-73.8701566, 41.1560903], [-73.8696376, 41.1547621], [-73.8699258, 41.1541792], [-73.8710798, 41.1537922], [-73.8717425, 41.152504], [-73.8716003, 41.1497727], [-73.8714381, 41.1494251], [-73.8692452, 41.148854], [-73.8687562, 41.1481702], [-73.8687038, 41.1474207], [-73.8694273, 41.1473305], [-73.8686614, 41.1472159], [-73.8684513, 41.145272], [-73.8696474, 41.145094], [-73.8696613, 41.1448387], [-73.8684087, 41.1443248], [-73.868149, 41.1419384], [-73.8664278, 41.1371552], [-73.8664021, 41.1366156], [-73.8670366, 41.1364563], [-73.8663879, 41.1356859], [-73.8677228, 41.1303932], [-73.867873, 41.1222371], [-73.8687265, 41.117536], [-73.8693627, 41.1172033], [-73.8688043, 41.1169184], [-73.8681333, 41.1078993], [-73.8692906, 41.1034565], [-73.8696375, 41.0992587], [-73.8700091, 41.098824], [-73.8697295, 41.0980692], [-73.8701188, 41.0969197], [-73.8700197, 41.0951967], [-73.8710902, 41.0948695], [-73.8711956, 41.0941845], [-73.8709615, 41.0947078], [-73.870014, 41.0946155], [-73.8704442, 41.0919206], [-73.8702171, 41.0915199], [-73.8704892, 41.0910618], [-73.8700929, 41.0909804], [-73.8699926, 41.0905893], [-73.8707346, 41.0897394], [-73.8725165, 41.0886998], [-73.8733936, 41.0888232], [-73.8729636, 41.0884436], [-73.8731656, 41.0870866], [-73.8727376, 41.0857581], [-73.8736357, 41.08552], [-73.8738135, 41.0839813], [-73.8743783, 41.0840193], [-73.8738545, 41.0839296], [-73.8739367, 41.0827869], [-73.8709186, 41.081429], [-73.869776, 41.0804423], [-73.8689818, 41.0808022], [-73.8683361, 41.0800184], [-73.8692181, 41.0797468], [-73.8694948, 41.0774585], [-73.8691777, 41.0768995], [-73.8692571, 41.0754876], [-73.86776, 41.0759865], [-73.8667554, 41.0759456], [-73.8660375, 41.0755574], [-73.8668467, 41.0751779], [-73.8672824, 41.0730947], [-73.8675684, 41.0731087], [-73.8679387, 41.0720932], [-73.8676767, 41.0716984], [-73.8664032, 41.0717221], [-73.8662504, 41.0713936], [-73.8677935, 41.0652646], [-73.8683391, 41.0642708], [-73.8682602, 41.0633636], [-73.8703255, 41.0545982], [-73.8708834, 41.0544526], [-73.8703416, 41.0543312], [-73.8707046, 41.0475299], [-73.8716076, 41.0447676], [-73.8720096, 41.0444577], [-73.8720038, 41.0438586], [-73.8733899, 41.0434547], [-73.8742874, 41.042233], [-73.8736214, 41.0412516], [-73.8737134, 41.0409002], [-73.8744814, 41.0409579], [-73.8757803, 41.0353197], [-73.8755629, 41.0344932], [-73.8750146, 41.0341929], [-73.8767951, 41.029139], [-73.8769936, 41.0249646], [-73.8779585, 41.0197696], [-73.8788485, 41.0191248], [-73.878874, 41.0185726], [-73.8781764, 41.0183838], [-73.8790423, 41.017528], [-73.8796164, 41.0175408], [-73.8802306, 41.0138879], [-73.8807112, 41.0137811], [-73.8807903, 41.0130383], [-73.8802758, 41.0128778], [-73.8802172, 41.0123833], [-73.8805417, 41.011933], [-73.8812422, 41.0118106], [-73.8811151, 41.0115201], [-73.8814207, 41.0111984], [-73.8814193, 41.0107893], [-73.8807559, 41.0100303], [-73.8831551, 41.0053829], [-73.8842591, 41.0004156], [-73.8841567, 40.999765], [-73.8846355, 40.9993981], [-73.8855041, 40.9994056], [-73.8845446, 40.9992309], [-73.8848721, 40.999073], [-73.884788, 40.9987697], [-73.8855273, 40.9986724], [-73.8856024, 40.9981368], [-73.8854512, 40.997786], [-73.8846904, 40.9976204], [-73.8846754, 40.9973113], [-73.8851653, 40.9970623], [-73.8852325, 40.9961335], [-73.8862346, 40.9962256], [-73.88646, 40.9959445], [-73.8864379, 40.9941579], [-73.8861307, 40.9940062], [-73.8861378, 40.9934166], [-73.8864311, 40.9930552], [-73.8865833, 40.9912268], [-73.8860983, 40.9911508], [-73.8862031, 40.990689], [-73.886619, 40.9907092], [-73.8868091, 40.9864177], [-73.8853821, 40.9855473], [-73.8880399, 40.9772855], [-73.8885604, 40.9770698], [-73.8884322, 40.976464], [-73.8889552, 40.9762983], [-73.889021, 40.9759673], [-73.888461, 40.9761767], [-73.8887217, 40.9753287], [-73.8890944, 40.9754229], [-73.8890496, 40.9758576], [-73.8891658, 40.9754544], [-73.889101, 40.975391], [-73.8887311, 40.9752899], [-73.8904737, 40.9695703], [-73.8914951, 40.9645022], [-73.8920683, 40.9632773], [-73.8925552, 40.9633331], [-73.8921669, 40.9632075], [-73.8922409, 40.9629702], [-73.8929803, 40.9628352], [-73.892777, 40.9626258], [-73.8930112, 40.9624444], [-73.8926291, 40.9621465], [-73.8962832, 40.957535], [-73.8966406, 40.9574745], [-73.8964558, 40.9573116], [-73.8967995, 40.9566984], [-73.8972838, 40.9564695], [-73.8981126, 40.9567408], [-73.8982634, 40.9563675], [-73.8979385, 40.9561099], [-73.8999428, 40.9512133], [-73.8994185, 40.9510102], [-73.8992714, 40.9503328], [-73.899818, 40.9486126], [-73.9000703, 40.9481311], [-73.9009664, 40.9483031], [-73.9010057, 40.9478425], [-73.9015204, 40.9478907], [-73.901625, 40.9472168], [-73.9013127, 40.9471902], [-73.9011944, 40.9465609], [-73.9014779, 40.9462444], [-73.9016489, 40.9436359], [-73.9026531, 40.9417428], [-73.902593, 40.9410101], [-73.901975, 40.9403553], [-73.9025148, 40.9400496], [-73.9031848, 40.9383734], [-73.9028577, 40.9380859], [-73.9032931, 40.9374713], [-73.9034257, 40.9364108], [-73.904104, 40.9360469], [-73.902938, 40.9357939], [-73.9039826, 40.9357505], [-73.9043662, 40.9347297], [-73.9043063, 40.9335647], [-73.904481, 40.9330005], [-73.9050928, 40.9325243], [-73.9054823, 40.9308997], [-73.9051012, 40.9307575], [-73.9048795, 40.9301179], [-73.9055735, 40.9287585], [-73.9057082, 40.9274421], [-73.9063524, 40.9270042], [-73.9070792, 40.9255292], [-73.906827, 40.9249577], [-73.9070792, 40.9236715], [-73.907375, 40.9236249], [-73.9075357, 40.9227168], [-73.9090002, 40.9229721], [-73.9106053, 40.9192329], [-73.9099931, 40.9189838], [-73.911223, 40.9161443], [-73.9101804, 40.9159068], [-73.9116676, 40.9133741], [-73.9114481, 40.9128268], [-73.9126499, 40.9080297], [-73.9130412, 40.9078776], [-73.9128569, 40.9075326], [-73.9142168, 40.9040332], [-73.9145955, 40.9041206], [-73.9150609, 40.9029971], [-73.9154171, 40.9018044], [-73.915101, 40.9016337], [-73.9179704, 40.8946832], [-73.919966, 40.8886917], [-73.9235682, 40.8807786], [-73.9249249, 40.8789705], [-73.9292253, 40.8755035], [-73.9319173, 40.8711483], [-73.9322232, 40.8700142], [-73.9320349, 40.8695614], [-73.9325973, 40.8689818], [-73.9322582, 40.868681], [-73.9324517, 40.8675285], [-73.9328492, 40.8674187], [-73.9329337, 40.866769], [-73.9374815, 40.8601283], [-73.9402242, 40.8567828], [-73.9420885, 40.8536052], [-73.9434429, 40.8523113], [-73.9446788, 40.8519341], [-73.9468115, 40.8506762], [-73.947075, 40.8502284], [-73.9466768, 40.8489431], [-73.94684, 40.8470227], [-73.9463409, 40.8462487], [-73.9465544, 40.8460149], [-73.9461013, 40.8438655], [-73.9485346, 40.8396184], [-73.950201, 40.8343293], [-73.9545637, 40.8278744], [-73.9550126, 40.8274618], [-73.9563188, 40.8279644], [-73.9569686, 40.8270244], [-73.9572789, 40.8271388], [-73.959591, 40.8236389], [-73.9581498, 40.8230204], [-73.9579453, 40.8227757], [-73.9581787, 40.8223733], [-73.9641769, 40.8157223], [-73.9817689, 40.7907281], [-73.9947165, 40.7955275], [-73.9951075, 40.7958543], [-73.9948882, 40.7961711], [-73.992886, 40.7958087], [-73.9919535, 40.7972102], [-73.9944817, 40.7983796], [-73.9944592, 40.7987523], [-73.9929894, 40.7999052], [-73.9923919, 40.799984], [-73.9922826, 40.8010622], [-73.9915863, 40.8022596], [-73.9907305, 40.8022972], [-73.9912219, 40.802575], [-73.9904617, 40.8036377], [-73.9897628, 40.8034253], [-73.9891772, 40.8040755], [-73.9876532, 40.8035018], [-73.9890488, 40.8042636], [-73.9885034, 40.8052684], [-73.9877955, 40.8056828], [-73.9860092, 40.8053826], [-73.9856488, 40.8060891], [-73.9841499, 40.8056334], [-73.9840524, 40.8059214], [-73.9866226, 40.8069691], [-73.9860985, 40.8076893], [-73.9857359, 40.8078823], [-73.9850808, 40.8076517], [-73.9846749, 40.808272], [-73.9828186, 40.8075933], [-73.9820617, 40.8087343], [-73.9838758, 40.8094308], [-73.983578, 40.8100058], [-73.9815323, 40.8110568], [-73.9811075, 40.8118746], [-73.9817155, 40.8123342], [-73.9812726, 40.8129762], [-73.9791087, 40.8122437], [-73.9789461, 40.8124201], [-73.9808017, 40.8132429], [-73.9804325, 40.8140153], [-73.9798681, 40.8141446], [-73.9798384, 40.81474], [-73.9801793, 40.8151177], [-73.9791554, 40.8161046], [-73.9785226, 40.8158728], [-73.9783228, 40.8161242], [-73.978716, 40.8162783], [-73.9786068, 40.8165502], [-73.9774931, 40.8173486], [-73.9774599, 40.8179268], [-73.9771334, 40.8179615], [-73.975219, 40.8205429], [-73.9734164, 40.8234813], [-73.9738282, 40.8240102], [-73.9730237, 40.8238729], [-73.9712316, 40.826718], [-73.9711103, 40.8270021], [-73.9717741, 40.8273037], [-73.9714721, 40.8277858], [-73.9717973, 40.8280483], [-73.9710926, 40.8283346], [-73.9707474, 40.8289369], [-73.9701455, 40.8287445], [-73.9690596, 40.831109], [-73.9695292, 40.8312939], [-73.9692056, 40.8328244], [-73.9681135, 40.8338029], [-73.9683466, 40.8349504], [-73.9677558, 40.8361231], [-73.9696999, 40.8369326], [-73.9694291, 40.8386628], [-73.9679799, 40.8386504], [-73.9688382, 40.8398037], [-73.9676427, 40.8397224], [-73.967026, 40.8400385], [-73.9673671, 40.8402578], [-73.9669961, 40.8401167], [-73.9666937, 40.8404109], [-73.9679282, 40.8408652], [-73.9675608, 40.842047], [-73.9668466, 40.842826], [-73.9658896, 40.8425884], [-73.9640742, 40.8459944], [-73.9612461, 40.8492384], [-73.959941, 40.851603], [-73.9595814, 40.8513898], [-73.9597125, 40.8517468], [-73.9594839, 40.8516219], [-73.9591187, 40.8524282], [-73.9588611, 40.8556579], [-73.958116, 40.8562608], [-73.9582117, 40.8573159], [-73.9575562, 40.8596789], [-73.9571026, 40.8598746], [-73.9546031, 40.8594172], [-73.9544381, 40.8602353], [-73.9536875, 40.8611817], [-73.9547495, 40.8617314], [-73.9547184, 40.8620872], [-73.9522913, 40.8653794], [-73.9518356, 40.8672319], [-73.9500927, 40.8699283], [-73.9496284, 40.8712047], [-73.9491456, 40.8714729], [-73.9484501, 40.8729842], [-73.9463331, 40.8756806], [-73.9458994, 40.8770136], [-73.9465261, 40.8772072], [-73.9457868, 40.8792526], [-73.945227, 40.8800324], [-73.9445054, 40.8800287], [-73.9444827, 40.8811274], [-73.9438202, 40.881407], [-73.944732, 40.8817485], [-73.9442241, 40.8830828], [-73.9433252, 40.8835569], [-73.9421438, 40.8868851], [-73.9412411, 40.8880215], [-73.9405421, 40.8880976], [-73.9408289, 40.8885244], [-73.9383466, 40.8936255], [-73.9362663, 40.8961123], [-73.9348167, 40.9005265], [-73.9326574, 40.9040983], [-73.9304065, 40.9115819], [-73.9287808, 40.9142974], [-73.9286622, 40.9149768], [-73.9281186, 40.9154154], [-73.9276642, 40.9153813], [-73.9281251, 40.9158687], [-73.9268564, 40.9190929], [-73.9267774, 40.9209706], [-73.9258978, 40.9229119], [-73.925998, 40.9246428], [-73.9250903, 40.9265981], [-73.9245274, 40.9266024], [-73.9249118, 40.9267895], [-73.9246714, 40.9286457], [-73.9249042, 40.9292766], [-73.9241369, 40.9309927], [-73.9228892, 40.9368754], [-73.9205212, 40.9398226], [-73.9188575, 40.9435416], [-73.9185458, 40.9465096], [-73.9178665, 40.9464632], [-73.9178261, 40.9467074], [-73.9184751, 40.9466303], [-73.918368, 40.9472446], [-73.9177848, 40.946959], [-73.9176915, 40.9472439], [-73.9181498, 40.9473326], [-73.9179788, 40.9478468], [-73.9184058, 40.9478614], [-73.9184948, 40.9481555], [-73.9178533, 40.9508196], [-73.9168522, 40.9519517], [-73.916603, 40.954352], [-73.9148491, 40.9569296], [-73.9143296, 40.9569246], [-73.9147176, 40.9571114], [-73.913886, 40.961233], [-73.9132409, 40.9622331], [-73.9124336, 40.962171], [-73.9128392, 40.9623239], [-73.9129295, 40.9628439], [-73.909927, 40.967043], [-73.909395, 40.9685652], [-73.9097967, 40.9692681], [-73.9093711, 40.9703425], [-73.9089101, 40.9737421], [-73.9078691, 40.9751451], [-73.9075236, 40.9761909], [-73.9075225, 40.9782505], [-73.9072079, 40.979031], [-73.9067991, 40.9792379], [-73.9058328, 40.9816871], [-73.9049132, 40.9815486], [-73.9061307, 40.9820372], [-73.9047193, 40.987154], [-73.9041093, 40.991123], [-73.9035347, 40.9914769], [-73.9026206, 40.9935224], [-73.9024619, 40.9981657], [-73.9031786, 41.003693], [-73.9030945, 41.0059943], [-73.9023551, 41.0070429], [-73.9024698, 41.0092517], [-73.9038275, 41.0142684], [-73.9030612, 41.0146711], [-73.9027583, 41.0155866], [-73.903438, 41.0159281], [-73.9034435, 41.0169892], [-73.9033028, 41.0174054], [-73.9023887, 41.017619], [-73.9028882, 41.0176557], [-73.903182, 41.0179944], [-73.9030162, 41.0186419], [-73.903631, 41.0188977], [-73.9023112, 41.0199845], [-73.902277, 41.0226506], [-73.90278, 41.0236286], [-73.9029134, 41.0257165], [-73.9036147, 41.0259613], [-73.9039104, 41.0266931], [-73.9036111, 41.0273663], [-73.9043089, 41.0276778], [-73.9033677, 41.0283293], [-73.90428, 41.0295656], [-73.9040673, 41.0302647], [-73.9048119, 41.0314139], [-73.9048137, 41.0324652], [-73.905479, 41.0330187], [-73.905899, 41.0348955], [-73.9077726, 41.0374234], [-73.907793, 41.0380484], [-73.9085228, 41.0380731], [-73.9083505, 41.0382705], [-73.9088225, 41.0385165], [-73.9066679, 41.0391942], [-73.9060931, 41.0403292], [-73.9062219, 41.0407759], [-73.9054302, 41.0409704], [-73.9056538, 41.0410711], [-73.9046082, 41.0420706], [-73.8981463, 41.0426219], [-73.8964047, 41.0430581], [-73.8965983, 41.0433754], [-73.8988289, 41.0427612], [-73.9053203, 41.042097], [-73.9099929, 41.0419671], [-73.9154494, 41.0422379], [-73.9163074, 41.042967], [-73.9167856, 41.0429641], [-73.9162601, 41.0432937], [-73.9170743, 41.0434898], [-73.9170796, 41.0443502], [-73.9164322, 41.0443927], [-73.9164511, 41.0449091], [-73.9171765, 41.0453998], [-73.9157024, 41.0458233], [-73.9158133, 41.0462349], [-73.9170913, 41.0461154], [-73.9177075, 41.0463956], [-73.9176423, 41.0471244], [-73.9186609, 41.0490586], [-73.9188527, 41.0502897], [-73.9185952, 41.0510211], [-73.9189642, 41.0511829], [-73.9188784, 41.0522315], [-73.9191359, 41.0522768], [-73.9194106, 41.0540762], [-73.9193934, 41.0549564], [-73.9190243, 41.0549629], [-73.9194106, 41.0556101], [-73.9194792, 41.0564321], [-73.9192303, 41.0566068], [-73.9195479, 41.0566457], [-73.9197511, 41.0574514], [-73.9199917, 41.0588747], [-73.9196595, 41.0589368], [-73.9197196, 41.0592539], [-73.9201401, 41.0594157], [-73.9196938, 41.0598622], [-73.920123, 41.060367], [-73.9196337, 41.0604641], [-73.9202517, 41.0610466], [-73.9202603, 41.0613378], [-73.9198333, 41.0613663], [-73.9198922, 41.0622009], [-73.9202024, 41.062209], [-73.9207066, 41.063907], [-73.9203173, 41.0667873], [-73.920492, 41.0692328], [-73.9200599, 41.0695736], [-73.9203804, 41.0702422], [-73.9202596, 41.0713133], [-73.9193818, 41.0732876], [-73.9198544, 41.0733975], [-73.9197997, 41.0736575], [-73.9191062, 41.0750285], [-73.9172141, 41.0760799], [-73.9167189, 41.0766613], [-73.9165759, 41.0774502], [-73.9157601, 41.0779693], [-73.9162125, 41.0782529], [-73.9159636, 41.0785247], [-73.9162721, 41.0797067], [-73.9155157, 41.0818858], [-73.9165775, 41.083836], [-73.9174896, 41.0842456], [-73.9178389, 41.0857973], [-73.9166245, 41.0871939], [-73.9169723, 41.0873677], [-73.9154001, 41.0871504], [-73.9156393, 41.0873109], [-73.9154147, 41.0882999], [-73.91628, 41.0888735], [-73.9146059, 41.0885974], [-73.9144262, 41.0890016], [-73.9147181, 41.0887497], [-73.9155903, 41.0891267], [-73.9151213, 41.0894426], [-73.9141683, 41.0892884], [-73.9141121, 41.0895705], [-73.9147209, 41.0895968], [-73.9143177, 41.0901009], [-73.9149793, 41.0903713], [-73.9149329, 41.0910272], [-73.9143774, 41.0914663], [-73.9149451, 41.0917105], [-73.9149054, 41.0925593], [-73.9142216, 41.0933884], [-73.9143105, 41.0938321], [-73.9148678, 41.0940448], [-73.9147929, 41.0945117], [-73.9139608, 41.0944543], [-73.9138882, 41.0948396], [-73.9152061, 41.0949547], [-73.9154647, 41.0953475], [-73.915062, 41.099096], [-73.9147866, 41.099697], [-73.9140349, 41.0998142], [-73.9139996, 41.1001786], [-73.9147598, 41.1002213], [-73.9146752, 41.1006852], [-73.9138311, 41.1006731], [-73.9149612, 41.1023822], [-73.9144939, 41.1037042], [-73.9146154, 41.1059949], [-73.9142584, 41.1067504], [-73.9145878, 41.1072382], [-73.9145137, 41.1078433], [-73.9137665, 41.1098336], [-73.9139853, 41.111681], [-73.9135139, 41.1119577], [-73.9137238, 41.1124837], [-73.9133366, 41.1134912], [-73.9134996, 41.1137618], [-73.9127812, 41.1148738], [-73.9123845, 41.1166096], [-73.9129622, 41.1172278], [-73.9129804, 41.1189027], [-73.9125983, 41.1196003], [-73.9108176, 41.1207284], [-73.9102811, 41.1214752], [-73.907026, 41.127829], [-73.9067243, 41.128993], [-73.9064491, 41.1331107], [-73.9060311, 41.1339489], [-73.9061792, 41.1352007], [-73.9068976, 41.136829], [-73.9070865, 41.1385873], [-73.9068169, 41.1390129], [-73.9072959, 41.1399091], [-73.9068719, 41.1423234], [-73.9077903, 41.1440945], [-73.9083568, 41.1440557], [-73.9086314, 41.1443918], [-73.9083825, 41.1447279], [-73.9098159, 41.1458202], [-73.9099855, 41.1467776], [-73.910603, 41.147139], [-73.9115621, 41.1494006], [-73.9151327, 41.1540215], [-73.9162399, 41.1559991], [-73.9248058, 41.1659116], [-73.9282133, 41.1688773], [-73.9359596, 41.1741561], [-73.9388006, 41.1753965], [-73.9392683, 41.1759389], [-73.9391443, 41.176368], [-73.9406717, 41.1766498], [-73.9437444, 41.1790078], [-73.9519015, 41.1829931], [-73.9523275, 41.1835232], [-73.95167, 41.18397], [-73.952638, 41.1851057], [-73.9530346, 41.187012], [-73.9539863, 41.1884097], [-73.9556563, 41.1893722], [-73.9557654, 41.1897124], [-73.9554117, 41.1899618], [-73.9561298, 41.1912029], [-73.9568154, 41.1919106], [-73.9589069, 41.1912654], [-73.9578759, 41.1919505], [-73.9583606, 41.1935901], [-73.9591098, 41.1934431], [-73.9599802, 41.1924738], [-73.9598923, 41.1922039], [-73.9603047, 41.1922407], [-73.9604173, 41.193313], [-73.9595004, 41.1937066], [-73.9597347, 41.194607], [-73.9592454, 41.1949235], [-73.959475, 41.1960784], [-73.958166, 41.1979314], [-73.9584922, 41.1991197], [-73.9597745, 41.1992611], [-73.960222, 41.1988331], [-73.9597985, 41.198188], [-73.9613246, 41.1980076], [-73.9619922, 41.1983856], [-73.9623802, 41.1996121], [-73.96458, 41.1996048], [-73.9650913, 41.1999683], [-73.9639464, 41.2005848], [-73.964861, 41.2010915], [-73.9650062, 41.2018087], [-73.9644353, 41.2025096], [-73.9624426, 41.2030449], [-73.9626282, 41.2041223], [-73.9621743, 41.204286], [-73.960232, 41.2035038], [-73.9594694, 41.2013126], [-73.959946, 41.2008057], [-73.9588416, 41.1999987], [-73.9582488, 41.1999197], [-73.9574056, 41.201834], [-73.9577586, 41.2030276], [-73.9575718, 41.2033619], [-73.9583668, 41.2038813], [-73.959402, 41.2038985], [-73.9622259, 41.2050057], [-73.9637279, 41.2088191], [-73.963704, 41.2111916], [-73.9645511, 41.2112693], [-73.9645506, 41.2116117], [-73.9636906, 41.2117475], [-73.9637888, 41.2121663], [-73.964528, 41.212169], [-73.9645358, 41.2124902], [-73.9637054, 41.2125953], [-73.9635696, 41.2155823], [-73.9645916, 41.2164935], [-73.9644718, 41.217706], [-73.9651554, 41.2177561], [-73.9648401, 41.2165491], [-73.9655253, 41.2147775], [-73.9660598, 41.2145239], [-73.9671716, 41.2149905], [-73.9677806, 41.2161592], [-73.9675255, 41.2187838], [-73.9682092, 41.2197378], [-73.9678317, 41.2202694], [-73.9662709, 41.2204397], [-73.9662445, 41.2201446], [-73.9654294, 41.2199653], [-73.9655698, 41.2191252], [-73.9642767, 41.218917], [-73.9641423, 41.2208109], [-73.9645486, 41.2212055], [-73.9633202, 41.223685], [-73.9631878, 41.2245429], [-73.9649612, 41.2251812], [-73.9663855, 41.2252642], [-73.969292, 41.2274071], [-73.9678291, 41.2261938], [-73.9679926, 41.2256672], [-73.9709257, 41.2267542], [-73.9708317, 41.2272092], [-73.9696463, 41.2275092], [-73.9723163, 41.2271124], [-73.9726596, 41.226015], [-73.9732151, 41.2261533], [-73.9741255, 41.2265244], [-73.9735112, 41.2272949], [-73.973666, 41.2275916], [-73.9744363, 41.2279867], [-73.9745753, 41.2283948], [-73.975547, 41.2285312], [-73.9762565, 41.2290909], [-73.976244, 41.2304258], [-73.9755312, 41.2308456], [-73.9752725, 41.2324785], [-73.9758618, 41.2329101], [-73.9755177, 41.2331138], [-73.9755166, 41.2344816], [-73.9749084, 41.2364672], [-73.9752775, 41.2373029], [-73.9757746, 41.2374202], [-73.9753279, 41.2389996], [-73.9742284, 41.2399248], [-73.9735456, 41.2397707], [-73.9696688, 41.2406926], [-73.9691512, 41.2411241], [-73.9710467, 41.242585], [-73.9726827, 41.2429428], [-73.9732161, 41.2427915], [-73.9748216, 41.2435236], [-73.9758508, 41.2433499], [-73.9764962, 41.2436772], [-73.976547, 41.2451382], [-73.9780873, 41.2490136], [-73.977803, 41.2500452], [-73.9788941, 41.2524899], [-73.9793501, 41.2543846], [-73.9785952, 41.2551868], [-73.9783479, 41.257944], [-73.9778922, 41.2594078], [-73.9781291, 41.2605651], [-73.9788469, 41.2607718], [-73.9786667, 41.2632687], [-73.9753468, 41.2682613], [-73.9730553, 41.2731179], [-73.9719781, 41.27461], [-73.9715067, 41.2762348], [-73.9704231, 41.2775587], [-73.968767, 41.278571], [-73.9668241, 41.2791874], [-73.965598, 41.2792113], [-73.9605509, 41.2808844], [-73.9603437, 41.2813433], [-73.9584979, 41.2826285], [-73.9551122, 41.2865161], [-73.9547125, 41.2879661], [-73.9551116, 41.289645], [-73.9569939, 41.2912262], [-73.961435, 41.2939016], [-73.9709952, 41.297443], [-73.9710324, 41.2972102], [-73.9697663, 41.2966863], [-73.9704745, 41.2968797], [-73.9734571, 41.2964928], [-73.9737253, 41.2967749], [-73.9740579, 41.2964847], [-73.9758818, 41.2967669], [-73.9777701, 41.296388], [-73.980227, 41.29638], [-73.9766221, 41.2968717], [-73.9774635, 41.2972598], [-73.9790146, 41.2992172], [-73.9792584, 41.2990704], [-73.9786284, 41.3000394], [-73.9789288, 41.3000716], [-73.9789073, 41.3004585], [-73.9796905, 41.3004343], [-73.9793901, 41.3007164], [-73.9803235, 41.3011839], [-73.9795618, 41.3019577], [-73.9799745, 41.3012008], [-73.9793579, 41.3008293], [-73.9787786, 41.3009018], [-73.9791434, 41.3007406], [-73.9785211, 41.300257], [-73.9779203, 41.3008212], [-73.9792895, 41.3024503], [-73.9792563, 41.303168], [-73.9789439, 41.3030642], [-73.9790468, 41.3024413], [-73.9785533, 41.3026992], [-73.9789395, 41.3023123], [-73.9787678, 41.3020866], [-73.9781348, 41.3016756], [-73.977652, 41.3019335], [-73.9780995, 41.3014062], [-73.9775922, 41.3010648], [-73.9771049, 41.3011678], [-73.9773176, 41.301726], [-73.9770892, 41.3017797], [-73.9768796, 41.3010227], [-73.9763539, 41.3010388], [-73.975163, 41.3000716], [-73.9759998, 41.3003457], [-73.9764182, 41.3008373], [-73.9778452, 41.2996606], [-73.9787142, 41.2996041], [-73.9786284, 41.2989513], [-73.976386, 41.2972586], [-73.9748733, 41.296783], [-73.9742188, 41.2973392], [-73.9732532, 41.2972989], [-73.973221, 41.2979679], [-73.9733927, 41.2986288], [-73.9741437, 41.2985563], [-73.9740579, 41.2989593], [-73.9750879, 41.2985724], [-73.9756136, 41.2988384], [-73.9749591, 41.2989351], [-73.9747982, 41.2995235], [-73.974766, 41.2990157], [-73.974015, 41.2990722], [-73.97137, 41.2973901], [-73.9711648, 41.2975283], [-73.9731817, 41.2987864], [-73.9735625, 41.2991966], [-73.9734014, 41.2993755], [-73.9743154, 41.2997653], [-73.9741974, 41.3009341], [-73.9736716, 41.2999104], [-73.9727382, 41.2996686], [-73.9719228, 41.2998943], [-73.9700131, 41.2992737], [-73.9689226, 41.2999139], [-73.9691921, 41.3002871], [-73.9690937, 41.3008822], [-73.9698138, 41.3014246], [-73.9722125, 41.3019416], [-73.9729222, 41.3033039], [-73.9727913, 41.3037353], [-73.9732548, 41.3050119], [-73.9741388, 41.3054504], [-73.9745251, 41.3063208], [-73.9760786, 41.3079778], [-73.9774433, 41.3081712], [-73.9775549, 41.3093575], [-73.9782759, 41.3101054], [-73.9788939, 41.3102214], [-73.9797178, 41.3095316], [-73.9799753, 41.3088159], [-73.9798122, 41.3081583], [-73.9804216, 41.3077457], [-73.9813915, 41.3082099], [-73.9813915, 41.307823], [-73.9820181, 41.3076812], [-73.9837937, 41.3096101], [-73.982095, 41.3071792], [-73.9855189, 41.3071731], [-73.9855586, 41.3105815], [-73.9849822, 41.3118948], [-73.9857347, 41.3139628], [-73.9853201, 41.3143168], [-73.9862145, 41.3156943], [-73.9866742, 41.3157561], [-73.9869585, 41.3168711], [-73.9863182, 41.320781], [-73.9871508, 41.3210711], [-73.9876145, 41.3219248], [-73.9895738, 41.3226875], [-73.9912277, 41.3239395], [-73.9930992, 41.3243721], [-73.991202, 41.3242747], [-73.9888526, 41.323044], [-73.988309, 41.3232459], [-73.9871765, 41.322992], [-73.9862418, 41.3219272], [-73.9859347, 41.3220168], [-73.9856262, 41.3224037], [-73.9857138, 41.3231597], [-73.9850737, 41.3233723], [-73.9847132, 41.3242682], [-73.9848591, 41.326376], [-73.9840236, 41.3275139], [-73.9839203, 41.3283815], [-73.9807898, 41.3307485], [-73.9785702, 41.3332846], [-73.9761423, 41.3347347], [-73.9742352, 41.3372917], [-73.9732824, 41.3394747], [-73.9699932, 41.343274], [-73.9678732, 41.3474817], [-73.9674183, 41.3475655], [-73.9676758, 41.3477974], [-73.9668937, 41.349416], [-73.9662767, 41.3499495], [-73.9663282, 41.3506969], [-73.9652382, 41.3515152], [-73.9635044, 41.3514765], [-73.9629465, 41.3508709], [-73.9622685, 41.3518245], [-73.9621998, 41.352662], [-73.9625431, 41.3527136], [-73.9623457, 41.353113], [-73.9627749, 41.353854], [-73.9638437, 41.3536666], [-73.9644896, 41.3548383], [-73.9633762, 41.3575539], [-73.9628323, 41.3577516], [-73.9631637, 41.3584852], [-73.9631864, 41.3608391], [-73.9625575, 41.3631887], [-73.962498, 41.3660166], [-73.9622232, 41.3678621], [-73.9613421, 41.3691356], [-73.9609122, 41.3710377], [-73.96112, 41.3713784], [-73.9606302, 41.3722731], [-73.9605381, 41.374546], [-73.9590497, 41.3776717], [-73.9579082, 41.3810078], [-73.9571872, 41.3824632], [-73.956449, 41.3830879], [-73.9548697, 41.3876472], [-73.9538054, 41.3891733], [-73.9520116, 41.3907896], [-73.9514709, 41.393069], [-73.9516683, 41.3935841], [-73.9507449, 41.3959369], [-73.9515537, 41.3960901], [-73.952214, 41.3966377], [-73.9529688, 41.3965129], [-73.9531274, 41.3969258], [-73.9538892, 41.3969213], [-73.9549783, 41.3976881], [-73.9565215, 41.3975333], [-73.9574962, 41.3968936], [-73.9578395, 41.3971769], [-73.9591184, 41.3968679], [-73.9642339, 41.4010914], [-73.9659419, 41.4032546], [-73.9657187, 41.4035443], [-73.9663539, 41.4039113], [-73.9673152, 41.4054113], [-73.9679589, 41.4085979], [-73.9698987, 41.4119388], [-73.9711794, 41.4168231], [-73.9743873, 41.4197758], [-73.9755782, 41.4218917], [-73.979682, 41.4261827], [-73.9809451, 41.428332], [-73.9811683, 41.428332], [-73.9807048, 41.4274117], [-73.9831939, 41.429426], [-73.983726, 41.4300567], [-73.9836745, 41.4314145], [-73.9852263, 41.432271], [-73.9850966, 41.4330716], [-73.9843424, 41.4333867], [-73.985092, 41.43357], [-73.9844728, 41.4344736], [-73.9841819, 41.4333956], [-73.9834988, 41.432716], [-73.9846052, 41.4360804], [-73.985146, 41.4367142], [-73.9907912, 41.440835], [-73.9958936, 41.4412978], [-73.9969683, 41.4418712], [-73.9968232, 41.4422396], [-73.9965231, 41.4422154], [-73.9968979, 41.4429364], [-73.9967343, 41.4423884], [-73.9970452, 41.4421305], [-73.9979358, 41.4422069], [-73.9988677, 41.4428101], [-73.9984344, 41.4433451], [-73.9972523, 41.4428408], [-73.9984865, 41.4434421], [-73.9990056, 41.4431821], [-73.999158, 41.4438172], [-73.9999786, 41.4444512], [-74.0027239, 41.4454972], [-74.0036, 41.4453931], [-74.005453, 41.4459809], [-74.0079542, 41.4469543], [-74.0082165, 41.4475458], [-74.0102011, 41.4486148], [-74.0141258, 41.4497722], [-74.0149296, 41.4506455], [-74.0163284, 41.4535233], [-74.0166611, 41.4531692], [-74.0174894, 41.4531961], [-74.0189056, 41.452599], [-74.019316, 41.4526955], [-74.0188814, 41.4528463], [-74.0191389, 41.4530875], [-74.0190021, 41.4534313], [-74.0197878, 41.4535572], [-74.0206976, 41.4531949], [-74.0219443, 41.4536959], [-74.0242617, 41.456458], [-74.0244146, 41.4570972], [-74.0233645, 41.4583184], [-74.0245675, 41.4591317], [-74.0250769, 41.4598869], [-74.0259799, 41.4599238], [-74.0302957, 41.4584689], [-74.0278656, 41.4595845], [-74.0253009, 41.460105], [-74.0230214, 41.4589504], [-74.0223355, 41.4567971]], [[-74.0240686, 41.4570852], [-74.023787, 41.456066], [-74.022234, 41.454501], [-74.0207051, 41.4538497], [-74.0185462, 41.4538193], [-74.0186301, 41.454154], [-74.0196493, 41.4544727], [-74.0206474, 41.4553644], [-74.0187926, 41.4548825], [-74.0195067, 41.4561031], [-74.0223369, 41.4563956], [-74.0232315, 41.458158], [-74.0240686, 41.4570852]], [[-73.9807754, 41.4849318], [-73.9790595, 41.4852298], [-73.9777983, 41.4865679], [-73.9787988, 41.4870557], [-73.9794533, 41.4880201], [-73.9812726, 41.4881641], [-73.9816204, 41.4850345], [-73.9807754, 41.4849318]], [[-73.9812207, 41.488293], [-73.9812208, 41.4882763], [-73.9809829, 41.4882759], [-73.9809829, 41.4882925], [-73.9812207, 41.488293]]], [[[-73.992602, 40.8765606], [-73.9939146, 40.8765996], [-73.9939916, 40.8749441], [-73.9942131, 40.8748622], [-73.9942912, 40.8765067], [-73.993653, 40.877726], [-73.9889171, 40.8834528], [-73.9887467, 40.8833434], [-73.9935772, 40.8774429], [-73.9938309, 40.8767659], [-73.9927326, 40.8771319], [-73.9924593, 40.8770116], [-73.992602, 40.8765606]]], [[[-73.9852245, 40.8879551], [-73.9843107, 40.8890878], [-73.9838913, 40.8893103], [-73.9850761, 40.8879009], [-73.9852245, 40.8879551]]], [[[-73.9225911, 41.2297287], [-73.9197385, 41.2303066], [-73.9190908, 41.2307504], [-73.9184859, 41.2307907], [-73.9180675, 41.2305456], [-73.9178275, 41.2308079], [-73.9170523, 41.2304438], [-73.9164971, 41.230819], [-73.9160366, 41.2308165], [-73.917118, 41.2300373], [-73.9175458, 41.2300756], [-73.9174479, 41.2304932], [-73.9177054, 41.2306747], [-73.9181855, 41.2304175], [-73.9190197, 41.2306888], [-73.9198807, 41.230123], [-73.9226487, 41.2294977], [-73.9230485, 41.2296038], [-73.9225911, 41.2297287]]], [[[-73.8759163, 40.8541911], [-73.875396, 40.8538665], [-73.8749239, 40.8543088], [-73.8752404, 40.8544549], [-73.8746986, 40.8544914], [-73.8743902, 40.8534118], [-73.8733279, 40.8522558], [-73.8734433, 40.851083], [-73.873041, 40.8495005], [-73.8748917, 40.8456049], [-73.8764369, 40.843363], [-73.8767642, 40.8435042], [-73.875455, 40.8452559], [-73.874881, 40.8465828], [-73.8744948, 40.8477515], [-73.8744733, 40.8492935], [-73.8741622, 40.8489608], [-73.874307, 40.8478976], [-73.8736803, 40.8491694], [-73.8736633, 40.8516267], [-73.8740571, 40.8527327], [-73.8747308, 40.8538057], [-73.8753745, 40.8537042], [-73.8769195, 40.8543413], [-73.8772574, 40.8550531], [-73.8767894, 40.8552869], [-73.8771742, 40.8566447], [-73.8763241, 40.8589935], [-73.8765657, 40.8598661], [-73.8739134, 40.863362], [-73.8753154, 40.8656484], [-73.8753393, 40.8659649], [-73.8743387, 40.8671278], [-73.8744107, 40.8679971], [-73.8736077, 40.8684936], [-73.8732004, 40.8692113], [-73.8733769, 40.8707498], [-73.8723056, 40.8723914], [-73.8728463, 40.8737609], [-73.8726044, 40.8747047], [-73.8720495, 40.8754855], [-73.8711673, 40.8762847], [-73.8699241, 40.876513], [-73.8687126, 40.8775301], [-73.8685281, 40.8781922], [-73.8693821, 40.8785402], [-73.8692396, 40.8789161], [-73.8693174, 40.8786043], [-73.868395, 40.8782204], [-73.8685165, 40.8776237], [-73.8698544, 40.8764381], [-73.8711266, 40.8761772], [-73.8725983, 40.8743788], [-73.8722141, 40.8723253], [-73.8732325, 40.8707375], [-73.8730232, 40.8696769], [-73.8733769, 40.8683687], [-73.8728931, 40.8678092], [-73.874144, 40.8670247], [-73.8752152, 40.8658096], [-73.8737892, 40.863412], [-73.8764832, 40.8598009], [-73.8761882, 40.8588555], [-73.8767782, 40.8577134], [-73.8769257, 40.8562718], [-73.8764206, 40.8547146], [-73.8759163, 40.8541911]]], [[[-73.913528, 40.8914923], [-73.9133719, 40.8911655], [-73.9135968, 40.890738], [-73.913734, 40.8912344], [-73.913528, 40.8914923]]], [[[-73.8466151, 40.9184497], [-73.8487758, 40.9150826], [-73.8501282, 40.9140518], [-73.8488703, 40.9151087], [-73.847492, 40.9175439], [-73.8468547, 40.918078], [-73.8461964, 40.91972], [-73.8455273, 40.9198063], [-73.8461699, 40.9194553], [-73.8466151, 40.9184497]]], [[[-73.918523, 40.9670853], [-73.9187938, 40.9668331], [-73.919462, 40.9670069], [-73.9197193, 40.9676137], [-73.9191821, 40.9676512], [-73.918523, 40.9670853]]], [[[-73.9167931, 41.2663888], [-73.9158231, 41.2666064], [-73.9154751, 41.2662811], [-73.9151336, 41.2666062], [-73.9146671, 41.2662989], [-73.9150576, 41.2655991], [-73.916182, 41.2651379], [-73.9169377, 41.2653549], [-73.9172911, 41.2663139], [-73.9167931, 41.2663888]]], [[[-73.8904114, 41.3243994], [-73.8889774, 41.3245788], [-73.8884069, 41.3240641], [-73.8887236, 41.3236307], [-73.8880967, 41.3233204], [-73.8879959, 41.3228226], [-73.8889474, 41.3228022], [-73.8896635, 41.3238474], [-73.8903056, 41.32397], [-73.8904114, 41.3243994]]], [[[-73.8735482, 41.4536191], [-73.8740256, 41.45458], [-73.8733122, 41.4558384], [-73.870579, 41.4577199], [-73.8700908, 41.458713], [-73.8695195, 41.4586868], [-73.8690984, 41.4574285], [-73.8703832, 41.4543649], [-73.8730332, 41.451862], [-73.8740853, 41.4523692], [-73.8735482, 41.4536191]]]]}}]}