{"type": "FeatureCollection", "features": [{"type": "Feature", "properties": {"name": "New York"}, "geometry": {"type": "MultiPolygon", "coordinates": [[[[-73.655972, 40.979597], [-73.659972, 40.968398], [-73.662072, 40.966198], [-73.664472, 40.967198], [-73.678073, 40.962798], [-73.683273, 40.948998], [-73.686473, 40.945198], [-73.697974, 40.939598], [-73.721739, 40.932037], [-73.731775, 40.924999], [-73.74185403217741, 40.92], [-73.91748477777779, 40.92], [-73.91558, 40.924898], [-73.90728, 40.951498], [-73.896479, 40.981697], [-73.893979, 40.997197], [-73.90268, 40.997297], [-73.90501, 40.997591], [-73.907054, 40.998476], [-73.91188, 41.001297], [-74.041049, 41.059086], [-74.041054, 41.059088], [-74.092486, 41.081896], [-74.096786, 41.083796], [-74.18239, 41.121595], [-74.234473, 41.142883], [-74.301994, 41.172594], [-74.320995, 41.182394], [-74.378898, 41.208994], [-74.457584, 41.248225], [-74.499603, 41.267344], [-74.607348, 41.317774], [-74.641544, 41.332879], [-74.694914, 41.357423], [-74.696398, 41.357339], [-74.691076, 41.36034], [-74.689767, 41.361558], [-74.689516, 41.363843], [-74.691129, 41.367324], [-74.694968, 41.370431], [-74.703282, 41.375093], [-74.708458, 41.378901], [-74.710391, 41.382102], [-74.713411, 41.389814], [-74.715979, 41.392584], [-74.720891, 41.39469], [-74.730384, 41.39566], [-74.73364, 41.396975], [-74.736103, 41.398398], [-74.738554, 41.401191], [-74.740963, 41.40512], [-74.741717, 41.40788], [-74.741086, 41.411413], [-74.738684, 41.413463], [-74.734731, 41.422699], [-74.734893, 41.425818], [-74.735519, 41.427465], [-74.736688, 41.429228], [-74.738455, 41.430641], [-74.740932, 41.43116], [-74.743821, 41.430635], [-74.75068, 41.427984], [-74.754359, 41.425147], [-74.758587, 41.423287], [-74.763701, 41.423612], [-74.77065, 41.42623], [-74.773239, 41.426352], [-74.778029, 41.425104], [-74.784339, 41.422397], [-74.790417, 41.42166], [-74.793856, 41.422671], [-74.795396, 41.42398], [-74.799546, 41.43129], [-74.800095, 41.432661], [-74.80037, 41.43606], [-74.801225, 41.4381], [-74.805655, 41.442101], [-74.807582, 41.442847], [-74.812123, 41.442982], [-74.817995, 41.440505], [-74.82288, 41.436792], [-74.826031, 41.431736], [-74.828592, 41.430698], [-74.830671, 41.430503], [-74.834635, 41.430796], [-74.836915, 41.431625], [-74.845572, 41.437577], [-74.848602, 41.440179], [-74.8542, 41.443166], [-74.858578, 41.444427], [-74.864688, 41.443993], [-74.876721, 41.440338], [-74.888691, 41.438259], [-74.893913, 41.43893], [-74.896025, 41.439987], [-74.896399, 41.442179], [-74.894931, 41.446099], [-74.889075, 41.451245], [-74.889116, 41.452534], [-74.890358, 41.455324], [-74.892114, 41.456959], [-74.895069, 41.45819], [-74.9042, 41.459806], [-74.906887, 41.461131], [-74.908103, 41.464639], [-74.908133, 41.468117], [-74.909181, 41.472436], [-74.912517, 41.475605], [-74.917282, 41.477041], [-74.924092, 41.477138], [-74.926835, 41.478327], [-74.932585, 41.482323], [-74.941798, 41.483542], [-74.945634, 41.483213], [-74.94808, 41.480625], [-74.956411, 41.476735], [-74.95826, 41.476396], [-74.969887, 41.477438], [-74.981652, 41.479945], [-74.983341, 41.480894], [-74.985004, 41.483703], [-74.985595, 41.485863], [-74.985247, 41.489113], [-74.982463, 41.496467], [-74.982168, 41.498486], [-74.982385, 41.500981], [-74.984372, 41.506611], [-74.985653, 41.507926], [-74.987645, 41.508738], [-74.993893, 41.508754], [-74.999612, 41.5074], [-75.003151, 41.508101], [-75.003694, 41.509295], [-75.003706, 41.511118], [-75.002592, 41.51456], [-75.000935, 41.517638], [-75.000911, 41.519292], [-75.001297, 41.52065], [-75.00385, 41.524052], [-75.009552, 41.528461], [-75.014919, 41.531399], [-75.016616, 41.53211], [-75.023018, 41.533147], [-75.024206, 41.534018], [-75.024757, 41.535099], [-75.024798, 41.539801], [-75.022828, 41.541456], [-75.017626, 41.542734], [-75.016144, 41.544246], [-75.016328, 41.546501], [-75.018524, 41.551802], [-75.027343, 41.563541], [-75.029211, 41.564637], [-75.033162, 41.565092], [-75.036989, 41.567049], [-75.04049, 41.569688], [-75.043879, 41.575094], [-75.04676, 41.583258], [-75.052858, 41.587772], [-75.060012, 41.590813], [-75.063677, 41.594739], [-75.066955, 41.599428], [-75.074613, 41.605711], [-75.074626, 41.607905], [-75.071667, 41.609501], [-75.067795, 41.610143], [-75.062716, 41.609639], [-75.059725, 41.610801], [-75.059956, 41.612306], [-75.061675, 41.615468], [-75.06156, 41.616429], [-75.060098, 41.617482], [-75.05385, 41.618655], [-75.051856, 41.618157], [-75.048385, 41.615986], [-75.047298, 41.615791], [-75.045508, 41.616203], [-75.044224, 41.617978], [-75.043562, 41.62364], [-75.048199, 41.632011], [-75.048658, 41.633781], [-75.049281, 41.641862], [-75.048683, 41.656317], [-75.04992, 41.662556], [-75.053991, 41.668194], [-75.057251, 41.668933], [-75.05843, 41.669653], [-75.059332, 41.67232], [-75.058765, 41.674412], [-75.052653, 41.678436], [-75.051285, 41.679961], [-75.051234, 41.682439], [-75.052736, 41.688393], [-75.056745, 41.695703], [-75.059829, 41.699716], [-75.067278, 41.705434], [-75.06883, 41.708161], [-75.068642, 41.710146], [-75.06663, 41.712588], [-75.061174, 41.712935], [-75.052226, 41.711396], [-75.050689, 41.711969], [-75.049862, 41.713309], [-75.049699, 41.715093], [-75.053527, 41.72715], [-75.054818, 41.735168], [-75.052808, 41.744725], [-75.053431, 41.752538], [-75.060759, 41.764638], [-75.064901, 41.766686], [-75.068567, 41.767298], [-75.072664, 41.768807], [-75.074231, 41.770518], [-75.075942, 41.771518], [-75.079478, 41.771205], [-75.09281, 41.768361], [-75.095451, 41.768366], [-75.10099, 41.769121], [-75.103492, 41.771238], [-75.104334, 41.772693], [-75.10464, 41.774203], [-75.103548, 41.782008], [-75.102329, 41.786503], [-75.101463, 41.787941], [-75.092876, 41.796386], [-75.088328, 41.797534], [-75.081415, 41.796483], [-75.07827, 41.797467], [-75.076889, 41.798509], [-75.074412, 41.802191], [-75.072168, 41.808327], [-75.071751, 41.811901], [-75.072172, 41.813732], [-75.074409, 41.815088], [-75.078063, 41.815112], [-75.079818, 41.814815], [-75.085789, 41.811626], [-75.089484, 41.811576], [-75.093537, 41.813375], [-75.100024, 41.818347], [-75.113334, 41.822782], [-75.114837, 41.82567], [-75.115147, 41.827285], [-75.114998, 41.8303], [-75.113441, 41.836298], [-75.113369, 41.840698], [-75.114399, 41.843583], [-75.115598, 41.844638], [-75.118789, 41.845819], [-75.127913, 41.844903], [-75.130983, 41.845145], [-75.140241, 41.852078], [-75.143824, 41.851737], [-75.146446, 41.850899], [-75.152898, 41.848564], [-75.156512, 41.848327], [-75.161541, 41.849836], [-75.164168, 41.851586], [-75.166217, 41.853862], [-75.168733, 41.859258], [-75.168053, 41.867043], [-75.169142, 41.87029], [-75.170565, 41.871608], [-75.174574, 41.87266], [-75.176633, 41.872371], [-75.179134, 41.869935], [-75.180497, 41.86568], [-75.182271, 41.862198], [-75.183937, 41.860515], [-75.185254, 41.85993], [-75.186993, 41.860109], [-75.188888, 41.861264], [-75.190203, 41.862454], [-75.191441, 41.865063], [-75.194382, 41.867287], [-75.197836, 41.868807], [-75.204002, 41.869867], [-75.209741, 41.86925], [-75.21497, 41.867449], [-75.220125, 41.860534], [-75.223734, 41.857456], [-75.22572, 41.857481], [-75.231612, 41.859459], [-75.234565, 41.861569], [-75.238743, 41.865699], [-75.241134, 41.867118], [-75.243345, 41.866875], [-75.248045, 41.8633], [-75.251197, 41.86204], [-75.257825, 41.862154], [-75.260527, 41.8638], [-75.262802, 41.866213], [-75.263673, 41.868105], [-75.263815, 41.870757], [-75.261488, 41.873277], [-75.258439, 41.875087], [-75.257564, 41.877108], [-75.260623, 41.883783], [-75.263005, 41.885109], [-75.267789, 41.885982], [-75.271292, 41.88736], [-75.272581, 41.893168], [-75.272778, 41.897112], [-75.267773, 41.901971], [-75.267562, 41.907054], [-75.269736, 41.911363], [-75.275368, 41.919564], [-75.276552, 41.922208], [-75.276501, 41.926679], [-75.277243, 41.933598], [-75.279094, 41.938917], [-75.289383, 41.942891], [-75.290966, 41.945039], [-75.291762, 41.947092], [-75.29143, 41.952477], [-75.293713, 41.954593], [-75.29858, 41.954521], [-75.300409, 41.953871], [-75.301593, 41.952811], [-75.301233, 41.9489], [-75.301664, 41.94838], [-75.303966, 41.948216], [-75.310358, 41.949012], [-75.312817, 41.950182], [-75.318168, 41.954236], [-75.32004, 41.960867], [-75.322384, 41.961693], [-75.329318, 41.968232], [-75.335771, 41.970315], [-75.339488, 41.970786], [-75.342204, 41.972872], [-75.34246, 41.974303], [-75.337791, 41.984386], [-75.337602, 41.9867], [-75.341125, 41.992772], [-75.346568, 41.995324], [-75.353504, 41.99711], [-75.359579, 41.999445], [-75.431961, 41.999363], [-75.436216, 41.999353], [-75.477144, 41.999407], [-75.483738, 41.999244], [-75.610316, 41.99896], [-75.742217, 41.997864], [-75.870677, 41.998828], [-75.98025, 41.999035], [-75.983082, 41.999035], [-76.10584, 41.998858], [-76.123696, 41.998954], [-76.131201, 41.998954], [-76.343722, 41.998346], [-76.349898, 41.99841], [-76.462155, 41.998934], [-76.46654, 41.999025], [-76.558118, 42.000155], [-76.749675, 42.001689], [-76.815878, 42.001673], [-76.835079, 42.001773], [-76.920784, 42.001774], [-76.921884, 42.001674], [-76.937084, 42.001674], [-76.942585, 42.001574], [-76.965686, 42.001274], [-77.007536, 42.000819], [-77.007635, 42.000848], [-77.063676, 42.000461], [-77.124693, 41.999395], [-77.505308, 42.00007], [-77.749931, 41.998782], [-77.822799, 41.998547], [-77.83203, 41.998524], [-77.997508, 41.998758], [-78.030963, 41.999392], [-78.031177, 41.999415], [-78.12473, 42.000452], [-78.271204, 41.998968], [-78.308128, 41.999415], [-78.59665, 41.999877], [-78.749754, 41.998109], [-78.874759, 41.997559], [-78.983065, 41.998949], [-79.061265, 41.999259], [-79.17857, 41.999458], [-79.249772, 41.998807], [-79.472472, 41.998255], [-79.538445, 41.998527], [-79.551385, 41.998666], [-79.625301, 41.999068], [-79.625287, 41.999003], [-79.670128, 41.999335], [-79.761374, 41.999067], [-79.761798, 42.019042], [-79.761709, 42.11899], [-79.762122, 42.131246], [-79.761861, 42.150712], [-79.761759, 42.162675], [-79.761921, 42.173319], [-79.761929, 42.179693], [-79.761833, 42.183627], [-79.762152, 42.243054], [-79.761964, 42.251354], [-79.761951, 42.26986], [-79.717825, 42.284711], [-79.645358, 42.315631], [-79.593992, 42.341641], [-79.546262, 42.363417], [-79.510999, 42.382373], [-79.474794, 42.404291], [-79.453533, 42.411157], [-79.429119, 42.42838], [-79.405458, 42.453281], [-79.381943, 42.466491], [-79.36213, 42.480195], [-79.351989, 42.48892], [-79.342316, 42.489664], [-79.335129, 42.488321], [-79.331483, 42.489076], [-79.323079, 42.494795], [-79.31774, 42.499884], [-79.283364, 42.511228], [-79.264624, 42.523159], [-79.242889, 42.531757], [-79.223195, 42.536087], [-79.193232, 42.545881], [-79.148723, 42.553672], [-79.138569, 42.564462], [-79.12963, 42.589824], [-79.126261, 42.590937], [-79.121921, 42.594234], [-79.113713, 42.605994], [-79.111361, 42.613358], [-79.078761, 42.640058], [-79.073261, 42.639958], [-79.06376, 42.644758], [-79.062261, 42.668358], [-79.04886, 42.689158], [-79.01886, 42.701558], [-79.00616, 42.704558], [-78.991159, 42.705358], [-78.944158, 42.731958], [-78.918157, 42.737258], [-78.868556, 42.770258], [-78.853455, 42.783958], [-78.851355, 42.791758], [-78.856456, 42.800258], [-78.859356, 42.800658], [-78.871932, 42.826183], [-78.869182, 42.833745], [-78.860445, 42.83511], [-78.859456, 42.841358], [-78.865592, 42.852358], [-78.872227, 42.853306], [-78.882557, 42.867258], [-78.891655, 42.884845], [-78.912458, 42.886557], [-78.905758, 42.899957], [-78.905659, 42.923357], [-78.909159, 42.933257], [-78.918859, 42.946857], [-78.93236, 42.955857], [-78.961761, 42.957756], [-78.975062, 42.968756], [-79.011563, 42.985256], [-79.019964, 42.994756], [-79.02092, 43.014287], [-79.011764, 43.028956], [-79.005164, 43.047056], [-79.00545, 43.057231], [-79.01053, 43.064389], [-79.074467, 43.077855], [-79.074678, 43.083141], [-79.069667, 43.088355], [-79.064754, 43.093205], [-79.060281, 43.105086], [-79.0614, 43.111096], [-79.061967, 43.115355], [-79.062518, 43.120182], [-79.060206, 43.124799], [-79.056767, 43.126855], [-79.049467, 43.135055], [-79.044066, 43.138055], [-79.042366, 43.143655], [-79.042867, 43.149155], [-79.044567, 43.153255], [-79.046567, 43.162355], [-79.048467, 43.164655], [-79.053067, 43.173655], [-79.052567, 43.183655], [-79.050744, 43.197417], [-79.053109, 43.209717], [-79.052868, 43.222054], [-79.055868, 43.238554], [-79.061388, 43.251349], [-79.070469, 43.262454], [-79.019848, 43.273686], [-78.971866, 43.281254], [-78.930764, 43.293254], [-78.859362, 43.310955], [-78.836261, 43.318455], [-78.834061, 43.317555], [-78.777759, 43.327055], [-78.747158, 43.334555], [-78.696856, 43.341255], [-78.634346, 43.357624], [-78.547395, 43.369541], [-78.488857, 43.374763], [-78.482526, 43.374425], [-78.473099, 43.370812], [-78.370221, 43.376505], [-78.358711, 43.373988], [-78.250641, 43.370866], [-78.233609, 43.36907], [-78.145195, 43.37551], [-78.104509, 43.375628], [-78.023609, 43.366575], [-77.994838, 43.365259], [-77.976438, 43.369159], [-77.965238, 43.368059], [-77.952937, 43.36346], [-77.922736, 43.35696], [-77.904836, 43.35696], [-77.875335, 43.34966], [-77.816533, 43.34356], [-77.797381, 43.339857], [-77.785132, 43.339261], [-77.760231, 43.341161], [-77.756931, 43.337361], [-77.73063, 43.330161], [-77.714129, 43.323561], [-77.701429, 43.308261], [-77.660359, 43.282998], [-77.653759, 43.279484], [-77.628315, 43.271303], [-77.577223, 43.243263], [-77.551022, 43.235763], [-77.534184, 43.234569], [-77.50092, 43.250363], [-77.476642, 43.254522], [-77.436831, 43.265701], [-77.414516, 43.269263], [-77.391015, 43.276363], [-77.341092, 43.280661], [-77.314619, 43.28103], [-77.303979, 43.27815], [-77.264177, 43.277363], [-77.214058, 43.284114], [-77.173088, 43.281509], [-77.143416, 43.287561], [-77.130429, 43.285635], [-77.111866, 43.287945], [-77.067295, 43.280937], [-77.033875, 43.271218], [-76.999691, 43.271456], [-76.988445, 43.2745], [-76.958402, 43.270005], [-76.952174, 43.270692], [-76.922351, 43.285006], [-76.904288, 43.291816], [-76.886913, 43.293891], [-76.877397, 43.292926], [-76.854976, 43.298443], [-76.841675, 43.305399], [-76.794708, 43.309632], [-76.769025, 43.318452], [-76.747067, 43.331477], [-76.731039, 43.343421], [-76.69836, 43.344436], [-76.684856, 43.352691], [-76.669624, 43.366526], [-76.642672, 43.401241], [-76.630774, 43.413356], [-76.607093, 43.423374], [-76.562826, 43.448537], [-76.53181, 43.460299], [-76.521999, 43.468617], [-76.515882, 43.471136], [-76.506858, 43.469127], [-76.486962, 43.47535], [-76.472498, 43.492781], [-76.437473, 43.509213], [-76.417581, 43.521285], [-76.410636, 43.523159], [-76.368849, 43.525822], [-76.345492, 43.513437], [-76.330911, 43.511978], [-76.297103, 43.51287], [-76.259858, 43.524728], [-76.235834, 43.529256], [-76.228701, 43.532987], [-76.217958, 43.545156], [-76.209853, 43.560136], [-76.203473, 43.574978], [-76.199138, 43.600454], [-76.196596, 43.649761], [-76.205436, 43.718751], [-76.213205, 43.753513], [-76.229268, 43.804135], [-76.246822, 43.817903], [-76.269506, 43.826152], [-76.275587, 43.833982], [-76.299065, 43.839213], [-76.295628, 43.854336], [-76.286004, 43.868084], [-76.261945, 43.879771], [-76.228261, 43.886645], [-76.212451, 43.90108], [-76.209701, 43.897643], [-76.227485, 43.875061], [-76.219313, 43.86682], [-76.202257, 43.864898], [-76.192777, 43.869175], [-76.180604, 43.877529], [-76.158249, 43.887542], [-76.145506, 43.888681], [-76.133267, 43.892975], [-76.127285, 43.897889], [-76.125023, 43.912773], [-76.130446, 43.933082], [-76.136663, 43.934592], [-76.139069, 43.940779], [-76.134358, 43.945664], [-76.123907, 43.951346], [-76.112486, 43.954677], [-76.101064, 43.96705], [-76.082981, 43.977044], [-76.073463, 43.977044], [-76.064897, 43.981327], [-76.064421, 43.985134], [-76.066324, 43.988941], [-76.073463, 43.991796], [-76.081553, 43.996555], [-76.119148, 43.971333], [-76.13628, 43.964671], [-76.146072, 43.964705], [-76.159004, 43.958995], [-76.169801, 43.962202], [-76.169802, 43.962202], [-76.184874, 43.971128], [-76.200249, 43.967931], [-76.208009, 43.977348], [-76.20764, 43.982964], [-76.202548, 43.989417], [-76.18732, 44.000363], [-76.148297, 44.008929], [-76.128785, 44.019874], [-76.120695, 44.031296], [-76.121171, 44.034151], [-76.124502, 44.036054], [-76.135448, 44.037482], [-76.140207, 44.036054], [-76.149724, 44.03082], [-76.159718, 44.029868], [-76.168284, 44.032723], [-76.151628, 44.046048], [-76.146869, 44.054614], [-76.150676, 44.059849], [-76.154483, 44.062229], [-76.162574, 44.062229], [-76.169712, 44.06318], [-76.17685, 44.060801], [-76.183513, 44.058421], [-76.202548, 44.054138], [-76.208735, 44.054614], [-76.212066, 44.056518], [-76.21397, 44.059373], [-76.213494, 44.061277], [-76.20588, 44.068891], [-76.20588, 44.070795], [-76.207783, 44.071746], [-76.214446, 44.069843], [-76.220632, 44.066036], [-76.251089, 44.059849], [-76.25918, 44.052711], [-76.276788, 44.031296], [-76.281071, 44.017971], [-76.278691, 44.016067], [-76.274408, 44.016543], [-76.23015, 44.029392], [-76.214922, 44.030344], [-76.202073, 44.029868], [-76.200169, 44.02844], [-76.199693, 44.025585], [-76.218729, 44.002266], [-76.218729, 43.994176], [-76.236864, 43.9779], [-76.254555, 43.966213], [-76.280677, 43.959683], [-76.284114, 43.9669], [-76.268702, 43.987278], [-76.266733, 43.995578], [-76.269672, 44.001148], [-76.281928, 44.009177], [-76.287821, 44.01142], [-76.296487, 44.008489], [-76.300956, 44.009864], [-76.307486, 44.026362], [-76.296986, 44.045455], [-76.300532, 44.057188], [-76.304207, 44.059445], [-76.360306, 44.070907], [-76.360798, 44.087644], [-76.366972, 44.100409], [-76.363835, 44.111696], [-76.358163, 44.123337], [-76.355679, 44.133258], [-76.3524, 44.137226], [-76.312647, 44.199044], [-76.286547, 44.203773], [-76.249661, 44.204171], [-76.245487, 44.203669], [-76.206777, 44.214543], [-76.191328, 44.221244], [-76.164265, 44.239603], [-76.161833, 44.280777], [-76.130884, 44.296635], [-76.126565, 44.294581], [-76.118136, 44.29485], [-76.111931, 44.298031], [-76.097351, 44.299547], [-76.045228, 44.331724], [-76.008361, 44.343856], [-76.000998, 44.347534], [-75.982392, 44.347404], [-75.978281, 44.34688], [-75.974839, 44.346172], [-75.973053, 44.343634], [-75.970185, 44.342835], [-75.94954, 44.349129], [-75.939664, 44.355395], [-75.929465, 44.359603], [-75.922247, 44.36568], [-75.912985, 44.368084], [-75.871496, 44.394839], [-75.82083, 44.432244], [-75.807778, 44.471644], [-75.76623, 44.515851], [-75.727052, 44.542812], [-75.696586, 44.567583], [-75.662381, 44.591934], [-75.618364, 44.619637], [-75.580912, 44.648521], [-75.505903, 44.705081], [-75.477642, 44.720224], [-75.423943, 44.756329], [-75.413885, 44.76889], [-75.397007, 44.773471], [-75.387371, 44.78003], [-75.372347, 44.78311], [-75.36636, 44.789472], [-75.346527, 44.805563], [-75.333744, 44.806378], [-75.306487, 44.826144], [-75.30763, 44.836813], [-75.283136, 44.849156], [-75.26825, 44.855119], [-75.255517, 44.857651], [-75.241303, 44.866958], [-75.228635, 44.8679], [-75.218548, 44.87554], [-75.203012, 44.877548], [-75.196227, 44.881368], [-75.188283, 44.88322], [-75.165123, 44.893324], [-75.142958, 44.900237], [-75.133977, 44.911838], [-75.119757, 44.917825], [-75.105162, 44.921193], [-75.096659, 44.927067], [-75.066245, 44.930174], [-75.059966, 44.93457], [-75.027125, 44.946568], [-75.005155, 44.958402], [-74.999655, 44.965921], [-74.99927, 44.971638], [-74.992756, 44.977449], [-74.972463, 44.983402], [-74.946686, 44.984665], [-74.907956, 44.983359], [-74.900733, 44.992754], [-74.887837, 45.000046], [-74.877232, 45.001362], [-74.868663, 45.001274], [-74.861927, 45.002771], [-74.854443, 45.00539], [-74.846175, 45.01029], [-74.834669, 45.014683], [-74.826578, 45.01585], [-74.819641, 45.012874], [-74.813263, 45.013543], [-74.805421, 45.011003], [-74.799434, 45.009132], [-74.793148, 45.004647], [-74.768749, 45.003893], [-74.760215, 44.994946], [-74.74464, 44.990577], [-74.731301, 44.990422], [-74.722574, 44.998062], [-74.702018, 45.003322], [-74.683973, 44.99969], [-74.678428, 45.000047], [-74.673047, 45.000942], [-74.667338, 45.001648], [-74.661478, 44.999592], [-74.54902, 44.998699], [-74.45753, 44.997032], [-74.335184, 44.991905], [-74.234136, 44.992148], [-74.146814, 44.9915], [-73.874597, 45.001223], [-73.762985, 45.003238], [-73.675458, 45.002907], [-73.639718, 45.003464], [-73.437371, 45.009198], [-73.343124, 45.01084], [-73.350188, 44.994304], [-73.353429, 44.990165], [-73.354633, 44.987352], [-73.354112, 44.984062], [-73.352886, 44.980644], [-73.350218, 44.976222], [-73.34474, 44.970468], [-73.338734, 44.965886], [-73.338243, 44.96475], [-73.337906, 44.960541], [-73.339603, 44.94337], [-73.338482, 44.924112], [-73.338979, 44.917681], [-73.341106, 44.914632], [-73.347837, 44.911309], [-73.353657, 44.907346], [-73.356218, 44.904492], [-73.35808, 44.901325], [-73.360327, 44.897236], [-73.362229, 44.891463], [-73.366459, 44.87504], [-73.369103, 44.86668], [-73.371967, 44.862414], [-73.375709, 44.860745], [-73.379822, 44.857037], [-73.381397, 44.848805], [-73.381359, 44.845021], [-73.379452, 44.83801], [-73.378717, 44.837358], [-73.375345, 44.836307], [-73.371329, 44.830742], [-73.369647, 44.829136], [-73.365678, 44.826451], [-73.35808, 44.82331], [-73.354945, 44.8215], [-73.353472, 44.820386], [-73.3502, 44.816394], [-73.335443, 44.804602], [-73.33443, 44.802188], [-73.333933, 44.7992], [-73.333154, 44.788759], [-73.333771, 44.785192], [-73.335713, 44.782086], [-73.344254, 44.776282], [-73.347072, 44.772988], [-73.348694, 44.768246], [-73.354361, 44.755296], [-73.357671, 44.751018], [-73.363791, 44.745254], [-73.365561, 44.741786], [-73.365068, 44.725646], [-73.36556, 44.700297], [-73.361323, 44.695369], [-73.361308, 44.694523], [-73.365297, 44.687546], [-73.370142, 44.684853], [-73.369685, 44.683758], [-73.367414, 44.681292], [-73.367209, 44.678513], [-73.371089, 44.67753], [-73.371843, 44.676956], [-73.37272, 44.668739], [-73.370065, 44.666071], [-73.369669, 44.663478], [-73.37059, 44.662518], [-73.373063, 44.662713], [-73.374134, 44.66234], [-73.379074, 44.656772], [-73.378968, 44.65518], [-73.378014, 44.653846], [-73.377973, 44.652918], [-73.383157, 44.645764], [-73.378561, 44.641475], [-73.379748, 44.64036], [-73.386783, 44.636369], [-73.387169, 44.635542], [-73.385899, 44.631044], [-73.386497, 44.626924], [-73.387346, 44.623672], [-73.389966, 44.61962], [-73.390231, 44.618353], [-73.38982, 44.61721], [-73.382932, 44.612184], [-73.380726, 44.605239], [-73.376849, 44.599598], [-73.376332, 44.597218], [-73.376806, 44.595455], [-73.377897, 44.593848], [-73.38164, 44.590583], [-73.381848, 44.589316], [-73.377794, 44.585128], [-73.375666, 44.582038], [-73.374389, 44.575455], [-73.367275, 44.567545], [-73.360088, 44.562546], [-73.356788, 44.557918], [-73.355186, 44.556918], [-73.350027, 44.555392], [-73.342932, 44.551907], [-73.338751, 44.548046], [-73.33863, 44.546844], [-73.3393, 44.544477], [-73.338995, 44.543302], [-73.331595, 44.535924], [-73.330893, 44.534269], [-73.330588, 44.531034], [-73.329458, 44.529203], [-73.328512, 44.528478], [-73.323935, 44.52712], [-73.322026, 44.525289], [-73.321111, 44.519857], [-73.321416, 44.516454], [-73.320836, 44.513631], [-73.319265, 44.51196], [-73.312871, 44.507246], [-73.306707, 44.500334], [-73.304921, 44.492209], [-73.304418, 44.485739], [-73.299885, 44.476652], [-73.298939, 44.471304], [-73.298725, 44.463957], [-73.300114, 44.454711], [-73.295216, 44.445884], [-73.293613, 44.440559], [-73.293855, 44.437556], [-73.296031, 44.428339], [-73.310491, 44.402601], [-73.312418, 44.39471], [-73.315016, 44.388513], [-73.317029, 44.385978], [-73.320954, 44.382669], [-73.330369, 44.375987], [-73.333575, 44.372288], [-73.334939, 44.364441], [-73.334637, 44.356877], [-73.327335, 44.344369], [-73.325127, 44.338534], [-73.323997, 44.333842], [-73.323835, 44.325418], [-73.324545, 44.319247], [-73.324229, 44.310023], [-73.322267, 44.301523], [-73.316838, 44.287683], [-73.312299, 44.280025], [-73.311025, 44.27424], [-73.312852, 44.265346], [-73.316618, 44.257769], [-73.319802, 44.249547], [-73.323596, 44.243897], [-73.324681, 44.243614], [-73.329322, 44.244504], [-73.3305, 44.244254], [-73.334042, 44.240971], [-73.336778, 44.239557], [-73.34323, 44.238049], [-73.342312, 44.234531], [-73.349889, 44.230356], [-73.350806, 44.225943], [-73.354747, 44.223599], [-73.355252, 44.22287], [-73.355276, 44.219554], [-73.357908, 44.216193], [-73.361476, 44.210374], [-73.362013, 44.208545], [-73.370678, 44.204546], [-73.372405, 44.202165], [-73.375289, 44.199868], [-73.377693, 44.199453], [-73.382252, 44.197178], [-73.383987, 44.193158], [-73.385326, 44.192597], [-73.388502, 44.192318], [-73.390583, 44.190886], [-73.390805, 44.189072], [-73.389658, 44.181249], [-73.390383, 44.179486], [-73.395862, 44.175785], [-73.396892, 44.173846], [-73.397385, 44.171596], [-73.396664, 44.168831], [-73.395399, 44.166903], [-73.395532, 44.166122], [-73.398728, 44.162248], [-73.399634, 44.155326], [-73.402381, 44.145856], [-73.403268, 44.144295], [-73.408118, 44.139373], [-73.41172, 44.137825], [-73.415761, 44.132826], [-73.41578, 44.131523], [-73.413751, 44.126068], [-73.411722, 44.11754], [-73.411316, 44.112686], [-73.416319, 44.099422], [-73.429239, 44.079414], [-73.430207, 44.071716], [-73.431991, 44.06345], [-73.43774, 44.045006], [-73.43688, 44.042578], [-73.430772, 44.038746], [-73.427987, 44.037708], [-73.42312, 44.032759], [-73.42016, 44.032004], [-73.414364, 44.029526], [-73.410776, 44.026944], [-73.407739, 44.021312], [-73.405999, 44.016229], [-73.405977, 44.011485], [-73.411224, 43.986202], [-73.412581, 43.98272], [-73.412613, 43.97998], [-73.411248, 43.975596], [-73.406823, 43.967317], [-73.405525, 43.948813], [-73.408589, 43.932933], [-73.407742, 43.929887], [-73.400926, 43.917048], [-73.397256, 43.905668], [-73.395878, 43.903044], [-73.383491, 43.890951], [-73.376312, 43.880292], [-73.374051, 43.875563], [-73.37415, 43.874163], [-73.379334, 43.864648], [-73.381501, 43.859235], [-73.382046, 43.855008], [-73.380987, 43.852633], [-73.373742, 43.847693], [-73.372462, 43.846266], [-73.372247, 43.845337], [-73.373688, 43.84261], [-73.376598, 43.839357], [-73.381865, 43.837315], [-73.388389, 43.832404], [-73.390194, 43.829364], [-73.392751, 43.822196], [-73.392492, 43.820779], [-73.390302, 43.817371], [-73.383259, 43.81331], [-73.380804, 43.810951], [-73.379279, 43.808391], [-73.37827, 43.805995], [-73.377232, 43.800565], [-73.376361, 43.798766], [-73.368184, 43.793346], [-73.362498, 43.790211], [-73.357547, 43.785933], [-73.355545, 43.778468], [-73.354758, 43.776721], [-73.350593, 43.771939], [-73.350707, 43.770463], [-73.354597, 43.764167], [-73.369725, 43.744274], [-73.370287, 43.742269], [-73.370724, 43.735571], [-73.369916, 43.728789], [-73.370612, 43.725329], [-73.377756, 43.717712], [-73.382965, 43.714058], [-73.385883, 43.711336], [-73.39179, 43.703481], [-73.393723, 43.6992], [-73.395517, 43.696831], [-73.398332, 43.694625], [-73.402078, 43.693106], [-73.404739, 43.690213], [-73.405243, 43.688367], [-73.403474, 43.684694], [-73.404126, 43.681339], [-73.407776, 43.672519], [-73.408061, 43.669438], [-73.414546, 43.658209], [-73.415513, 43.65245], [-73.418763, 43.64788], [-73.423539, 43.645676], [-73.425217, 43.64429], [-73.426463, 43.642598], [-73.428583, 43.636543], [-73.42791, 43.634428], [-73.418319, 43.623325], [-73.417668, 43.621687], [-73.417827, 43.620586], [-73.423708, 43.612356], [-73.423815, 43.610989], [-73.422154, 43.606511], [-73.421616, 43.603023], [-73.424977, 43.598775], [-73.430325, 43.590532], [-73.431229, 43.588285], [-73.430947, 43.587036], [-73.428636, 43.583994], [-73.426663, 43.582974], [-73.420378, 43.581489], [-73.416964, 43.57773], [-73.405629, 43.571179], [-73.400295, 43.568889], [-73.398125, 43.568065], [-73.395767, 43.568087], [-73.39196, 43.569915], [-73.384188, 43.575512], [-73.383369, 43.57677], [-73.382549, 43.579193], [-73.383426, 43.584727], [-73.383446, 43.596778], [-73.377748, 43.599656], [-73.373443, 43.603292], [-73.372469, 43.604848], [-73.372375, 43.606014], [-73.376036, 43.612596], [-73.374557, 43.614677], [-73.369933, 43.619093], [-73.36987, 43.619711], [-73.372486, 43.622751], [-73.371889, 43.624489], [-73.368899, 43.62471], [-73.367167, 43.623622], [-73.365562, 43.62344], [-73.35911, 43.624598], [-73.358593, 43.625065], [-73.347621, 43.622509], [-73.342181, 43.62607], [-73.327702, 43.625913], [-73.323893, 43.627629], [-73.317566, 43.627355], [-73.312809, 43.624602], [-73.310606, 43.624114], [-73.307682, 43.627492], [-73.306234, 43.628018], [-73.304125, 43.627057], [-73.302552, 43.625708], [-73.302076, 43.624364], [-73.300285, 43.610806], [-73.29802, 43.610028], [-73.293741, 43.605203], [-73.292232, 43.60255], [-73.292202, 43.59816], [-73.292801, 43.593861], [-73.293242, 43.592558], [-73.296924, 43.587323], [-73.292364, 43.585104], [-73.292113, 43.584509], [-73.29444, 43.582494], [-73.295344, 43.580235], [-73.294621, 43.57897], [-73.293536, 43.578518], [-73.284912, 43.579272], [-73.281296, 43.577579], [-73.280952, 43.575407], [-73.279726, 43.574241], [-73.26938, 43.571973], [-73.264099, 43.568884], [-73.258631, 43.564949], [-73.252602, 43.556851], [-73.248641, 43.553857], [-73.24842, 43.552577], [-73.250408, 43.550425], [-73.250132, 43.543429], [-73.247812, 43.542814], [-73.246585, 43.541855], [-73.242042, 43.534925], [-73.241589, 43.534973], [-73.24139, 43.532345], [-73.241891, 43.529418], [-73.243366, 43.527726], [-73.246821, 43.52578], [-73.247698, 43.523173], [-73.247631, 43.51924], [-73.24672, 43.518875], [-73.247061, 43.514919], [-73.248401, 43.470443], [-73.252582, 43.370997], [-73.252674, 43.370285], [-73.252832, 43.363493], [-73.253084, 43.354714], [-73.256493, 43.259249], [-73.258718, 43.229894], [-73.265574, 43.096223], [-73.26978, 43.035923], [-73.274294, 42.943652], [-73.274393, 42.942482], [-73.274466, 42.940361], [-73.275804, 42.897249], [-73.278673, 42.83341], [-73.284311, 42.834954], [-73.285388, 42.834093], [-73.287063, 42.82014], [-73.28375, 42.813864], [-73.286337, 42.808038], [-73.290944, 42.80192], [-73.276421, 42.746019], [-73.264957, 42.74594], [-73.352527, 42.510002], [-73.508142, 42.086257], [-73.496879, 42.049675], [-73.487314, 42.049638], [-73.489615, 42.000092], [-73.492975, 41.958524], [-73.496527, 41.92238], [-73.498304, 41.892508], [-73.501984, 41.858717], [-73.504944, 41.824285], [-73.505008, 41.823773], [-73.510961, 41.758749], [-73.511921, 41.740941], [-73.516785, 41.687581], [-73.520017, 41.641197], [-73.521041, 41.619773], [-73.530067, 41.527194], [-73.533969, 41.479693], [-73.534055, 41.478968], [-73.53415, 41.47806], [-73.534269, 41.476911], [-73.534269, 41.476394], [-73.534369, 41.475894], [-73.535769, 41.457159], [-73.535857, 41.455709], [-73.535885, 41.455236], [-73.535986, 41.45306], [-73.536067, 41.451331], [-73.536969, 41.441094], [-73.537469, 41.43589], [-73.537673, 41.433905], [-73.541169, 41.405994], [-73.543425, 41.376622], [-73.544728, 41.366375], [-73.548973, 41.326297], [-73.549574, 41.315931], [-73.548929, 41.307598], [-73.550961, 41.295422], [-73.518384, 41.256719], [-73.482709, 41.21276], [-73.509487, 41.200814], [-73.514617, 41.198434], [-73.564941, 41.17517], [-73.632153, 41.144921], [-73.639672, 41.141495], [-73.727775, 41.100696], [-73.722575, 41.093596], [-73.716875, 41.087596], [-73.694273, 41.059296], [-73.687173, 41.050697], [-73.679973, 41.041797], [-73.670472, 41.030097], [-73.662672, 41.020497], [-73.655371, 41.012797], [-73.654671, 41.011697], [-73.655571, 41.007697], [-73.659372, 40.999497], [-73.658772, 40.993497], [-73.659671, 40.987909], [-73.657336, 40.985171], [-73.655972, 40.979597]]], [[[-73.713674, 40.870099], [-73.675573, 40.856999], [-73.655872, 40.863899], [-73.654372, 40.878199], [-73.641072, 40.892599], [-73.633771, 40.898198], [-73.626972, 40.899397], [-73.617571, 40.897898], [-73.60187, 40.902798], [-73.59517, 40.907298], [-73.569969, 40.915398], [-73.566169, 40.915798], [-73.548068, 40.908698], [-73.519267, 40.914298], [-73.514999, 40.912821], [-73.499941, 40.918166], [-73.496642, 40.923476], [-73.491765, 40.942097], [-73.485365, 40.946397], [-73.478365, 40.942297], [-73.463708, 40.937697], [-73.436664, 40.934897], [-73.429863, 40.929797], [-73.428836, 40.921506], [-73.406074, 40.920235], [-73.402963, 40.925097], [-73.403462, 40.942197], [-73.400862, 40.953997], [-73.399762, 40.955197], [-73.392862, 40.955297], [-73.374462, 40.937597], [-73.365961, 40.931697], [-73.352761, 40.926697], [-73.345561, 40.925297], [-73.344161, 40.927297], [-73.33136, 40.929597], [-73.295059, 40.924497], [-73.229285, 40.905121], [-73.148994, 40.928898], [-73.146242, 40.935074], [-73.144673, 40.955842], [-73.154446, 40.961658], [-73.159576, 40.968448], [-73.137497, 40.966801], [-73.118331, 40.978071], [-73.110368, 40.971938], [-73.081582, 40.973058], [-73.043701, 40.962185], [-73.040445, 40.964498], [-72.995931, 40.966498], [-72.955163, 40.966146], [-72.913834, 40.962466], [-72.88825, 40.962962], [-72.826057, 40.969794], [-72.774104, 40.965314], [-72.760031, 40.975334], [-72.714425, 40.985596], [-72.689341, 40.989776], [-72.665018, 40.987496], [-72.635374, 40.990536], [-72.585327, 40.997587], [-72.565406, 41.009508], [-72.560974, 41.015444], [-72.549853, 41.019844], [-72.521548, 41.037652], [-72.477306, 41.052212], [-72.460778, 41.067012], [-72.445242, 41.086116], [-72.417945, 41.087955], [-72.397, 41.096307], [-72.356087, 41.133635], [-72.333351, 41.138018], [-72.322381, 41.140664], [-72.291109, 41.155874], [-72.278789, 41.158722], [-72.272997, 41.15501], [-72.2681, 41.154146], [-72.245348, 41.161217], [-72.238211, 41.15949], [-72.237731, 41.156434], [-72.253572, 41.137138], [-72.265124, 41.128482], [-72.300374, 41.112274], [-72.300044, 41.132059], [-72.306381, 41.13784], [-72.312734, 41.138546], [-72.318146, 41.137134], [-72.32663, 41.132162], [-72.335271, 41.120274], [-72.335177, 41.106917], [-72.317238, 41.088659], [-72.297718, 41.081042], [-72.280373, 41.080402], [-72.276709, 41.076722], [-72.283093, 41.067874], [-72.273657, 41.051533], [-72.260515, 41.042065], [-72.241252, 41.04477], [-72.229364, 41.044355], [-72.217476, 41.040611], [-72.201859, 41.032275], [-72.190563, 41.032579], [-72.183266, 41.035619], [-72.17949, 41.038435], [-72.174882, 41.046147], [-72.162898, 41.053187], [-72.16037, 41.053827], [-72.153857, 41.051859], [-72.137297, 41.039684], [-72.135137, 41.031284], [-72.137409, 41.023908], [-72.116368, 40.999796], [-72.109008, 40.994084], [-72.10216, 40.991509], [-72.095456, 40.991349], [-72.083039, 40.996453], [-72.079951, 41.003429], [-72.079208, 41.006437], [-72.076175, 41.009093], [-72.055424, 41.022257], [-72.047468, 41.022565], [-72.035792, 41.020759], [-72.015013, 41.028348], [-71.99926, 41.039669], [-71.991409, 41.048809], [-71.981098, 41.048809], [-71.980033, 41.044504], [-71.96704, 41.047772], [-71.961078, 41.054277], [-71.960355, 41.059878], [-71.961563, 41.064021], [-71.959595, 41.071237], [-71.93825, 41.077413], [-71.919385, 41.080517], [-71.899256, 41.080837], [-71.895496, 41.077381], [-71.889543, 41.075701], [-71.869558, 41.075046], [-71.86447, 41.076918], [-71.857494, 41.073558], [-71.856214, 41.070598], [-71.87391, 41.052278], [-71.903736, 41.040166], [-71.935689, 41.034182], [-72.029357, 40.999909], [-72.114448, 40.972085], [-72.39585, 40.86666], [-72.469996, 40.84274], [-72.573441, 40.813251], [-72.745208, 40.767091], [-72.753112, 40.763571], [-72.757176, 40.764371], [-72.768152, 40.761587], [-72.863164, 40.732962], [-72.923214, 40.713282], [-73.012545, 40.679651], [-73.054963, 40.666371], [-73.20844, 40.630884], [-73.23914, 40.6251], [-73.262106, 40.621476], [-73.306396, 40.620756], [-73.30974, 40.622532], [-73.319257, 40.635795], [-73.351465, 40.6305], [-73.391967, 40.617501], [-73.450369, 40.603501], [-73.484915, 40.597394], [-73.575357, 40.573723], [-73.574409, 40.58539], [-73.583773, 40.586703], [-73.610873, 40.587703], [-73.646674, 40.582804], [-73.72, 40.58388928611867], [-73.72, 40.86866718602604], [-73.713674, 40.870099]]]]}}, {"type": "Feature", "properties": {"name": "Connecticut"}, "geometry": {"type": "Polygon", "coordinates": [[[-71.85957, 41.322399], [-71.868235, 41.330941], [-71.886302, 41.33641], [-71.91671, 41.332217], [-71.922092, 41.334518], [-71.923282, 41.335113], [-71.936284, 41.337959], [-71.945652, 41.337799], [-71.956747, 41.329871], [-71.970955, 41.324526], [-71.979447, 41.329987], [-71.982194, 41.329861], [-71.988153, 41.320577], [-72.000293, 41.319232], [-72.005143, 41.306687], [-72.010838, 41.307033], [-72.021898, 41.316838], [-72.084487, 41.319634], [-72.094443, 41.314164], [-72.09982, 41.306998], [-72.11182, 41.299098], [-72.134221, 41.299398], [-72.16158, 41.310262], [-72.173922, 41.317597], [-72.177622, 41.322497], [-72.184122, 41.323997], [-72.191022, 41.323197], [-72.201422, 41.315697], [-72.203022, 41.313197], [-72.204022, 41.299097], [-72.2014, 41.28847], [-72.205109, 41.285187], [-72.209992, 41.286065], [-72.212924, 41.291365], [-72.225276, 41.299047], [-72.235531, 41.300413], [-72.248161, 41.299488], [-72.251895, 41.29862], [-72.250515, 41.294386], [-72.251323, 41.289997], [-72.261487, 41.282926], [-72.31776, 41.277782], [-72.327595, 41.27846], [-72.333894, 41.282916], [-72.348643, 41.277446], [-72.348068, 41.269698], [-72.386629, 41.261798], [-72.398688, 41.278172], [-72.40593, 41.278398], [-72.451925, 41.278885], [-72.472539, 41.270103], [-72.485693, 41.270881], [-72.499534, 41.265866], [-72.506634, 41.260099], [-72.51866, 41.261253], [-72.521312, 41.2656], [-72.529416, 41.264421], [-72.533247, 41.26269], [-72.536746, 41.256207], [-72.547235, 41.250499], [-72.571136, 41.268098], [-72.583336, 41.271698], [-72.598036, 41.268698], [-72.617237, 41.271998], [-72.641538, 41.266998], [-72.653838, 41.265897], [-72.662838, 41.269197], [-72.672339, 41.266997], [-72.684939, 41.257597], [-72.685539, 41.251297], [-72.690439, 41.246697], [-72.694744, 41.24497], [-72.710595, 41.24448], [-72.713674, 41.249007], [-72.711208, 41.251018], [-72.71246, 41.254167], [-72.722439, 41.259138], [-72.732813, 41.254727], [-72.754444, 41.266913], [-72.757477, 41.266913], [-72.786142, 41.264796], [-72.818737, 41.252244], [-72.819372, 41.254061], [-72.826883, 41.256755], [-72.847767, 41.25669], [-72.85021, 41.255544], [-72.854055, 41.24774], [-72.861344, 41.245297], [-72.881445, 41.242597], [-72.895445, 41.243697], [-72.904345, 41.247297], [-72.905245, 41.248297], [-72.903045, 41.252797], [-72.894745, 41.256197], [-72.893845, 41.259897], [-72.9082, 41.282932], [-72.916827, 41.282033], [-72.920062, 41.280056], [-72.920846, 41.268897], [-72.935646, 41.258497], [-72.962047, 41.251597], [-72.986247, 41.233497], [-72.997948, 41.222697], [-73.007548, 41.210197], [-73.014948, 41.204297], [-73.020149, 41.204097], [-73.020449, 41.206397], [-73.022549, 41.207197], [-73.05065, 41.210197], [-73.05935, 41.206697], [-73.07945, 41.194015], [-73.105493, 41.172194], [-73.107987, 41.168738], [-73.110352, 41.159697], [-73.109952, 41.156997], [-73.108352, 41.153718], [-73.111052, 41.150797], [-73.130253, 41.146797], [-73.170074, 41.160532], [-73.170701, 41.164945], [-73.177774, 41.166697], [-73.202656, 41.158096], [-73.228295, 41.142602], [-73.235058, 41.143996], [-73.247958, 41.126396], [-73.262358, 41.117496], [-73.286759, 41.127896], [-73.296359, 41.125696], [-73.31186, 41.116296], [-73.33066, 41.109996], [-73.372296, 41.10402], [-73.392162, 41.087696], [-73.400154, 41.086299], [-73.41367, 41.073258], [-73.435063, 41.056696], [-73.450364, 41.057096], [-73.468239, 41.051347], [-73.477364, 41.035997], [-73.493327, 41.048173], [-73.516903, 41.038738], [-73.516766, 41.029497], [-73.522666, 41.019297], [-73.528866, 41.016397], [-73.531169, 41.021919], [-73.530189, 41.028776], [-73.532786, 41.03167], [-73.535338, 41.03192], [-73.551494, 41.024336], [-73.561968, 41.016797], [-73.567668, 41.010897], [-73.570068, 41.001597], [-73.583968, 41.000897], [-73.584988, 41.010537], [-73.595699, 41.015995], [-73.603952, 41.015054], [-73.643478, 41.002171], [-73.651175, 40.995229], [-73.657336, 40.985171], [-73.659671, 40.987909], [-73.658772, 40.993497], [-73.659372, 40.999497], [-73.655571, 41.007697], [-73.654671, 41.011697], [-73.655371, 41.012797], [-73.662672, 41.020497], [-73.670472, 41.030097], [-73.679973, 41.041797], [-73.687173, 41.050697], [-73.694273, 41.059296], [-73.716875, 41.087596], [-73.722575, 41.093596], [-73.727775, 41.100696], [-73.639672, 41.141495], [-73.632153, 41.144921], [-73.564941, 41.17517], [-73.514617, 41.198434], [-73.509487, 41.200814], [-73.482709, 41.21276], [-73.518384, 41.256719], [-73.550961, 41.295422], [-73.548929, 41.307598], [-73.549574, 41.315931], [-73.548973, 41.326297], [-73.544728, 41.366375], [-73.543425, 41.376622], [-73.541169, 41.405994], [-73.537673, 41.433905], [-73.537469, 41.43589], [-73.536969, 41.441094], [-73.536067, 41.451331], [-73.535986, 41.45306], [-73.535885, 41.455236], [-73.535857, 41.455709], [-73.535769, 41.457159], [-73.534369, 41.475894], [-73.534269, 41.476394], [-73.534269, 41.476911], [-73.53415, 41.47806], [-73.534055, 41.478968], [-73.533969, 41.479693], [-73.530067, 41.527194], [-73.521041, 41.619773], [-73.520017, 41.641197], [-73.516785, 41.687581], [-73.511921, 41.740941], [-73.510961, 41.758749], [-73.505008, 41.823773], [-73.504944, 41.824285], [-73.501984, 41.858717], [-73.498304, 41.892508], [-73.496527, 41.92238], [-73.492975, 41.958524], [-73.489615, 42.000092], [-73.487314, 42.049638], [-73.432812, 42.050587], [-73.29442, 42.046984], [-73.293097, 42.04694], [-73.231056, 42.044945], [-73.229798, 42.044877], [-73.053254, 42.039861], [-72.999549, 42.038653], [-72.863733, 42.03771], [-72.863619, 42.037709], [-72.847142, 42.036894], [-72.813541, 42.036494], [-72.816741, 41.997595], [-72.766739, 42.002995], [-72.766139, 42.007695], [-72.763265, 42.009742], [-72.763238, 42.012795], [-72.761238, 42.014595], [-72.759738, 42.016995], [-72.761354, 42.018183], [-72.76231, 42.019775], [-72.762151, 42.021527], [-72.760558, 42.021846], [-72.758151, 42.020865], [-72.757467, 42.020947], [-72.754038, 42.025395], [-72.751738, 42.030195], [-72.753538, 42.032095], [-72.757538, 42.033295], [-72.755838, 42.036195], [-72.695927, 42.036788], [-72.643134, 42.032395], [-72.607933, 42.030795], [-72.606933, 42.024995], [-72.590233, 42.024695], [-72.582332, 42.024695], [-72.573231, 42.030141], [-72.528131, 42.034295], [-72.45668, 42.033999], [-72.317148, 42.031907], [-72.249523, 42.031626], [-72.135687, 42.030245], [-72.063496, 42.027347], [-71.987326, 42.02688], [-71.89078, 42.024368], [-71.80065, 42.023569], [-71.799242, 42.008065], [-71.797922, 41.935395], [-71.794161, 41.841101], [-71.794161, 41.840141], [-71.792786, 41.80867], [-71.792767, 41.807001], [-71.791062, 41.770273], [-71.789678, 41.724734], [-71.786994, 41.655992], [-71.789356, 41.59691], [-71.797683, 41.416709], [-71.81839, 41.419599], [-71.839649, 41.412119], [-71.842563, 41.409855], [-71.843472, 41.40583], [-71.842131, 41.395359], [-71.833443, 41.384524], [-71.831613, 41.370899], [-71.837738, 41.363529], [-71.835951, 41.353935], [-71.829595, 41.344544], [-71.839013, 41.334042], [-71.860513, 41.320248], [-71.85957, 41.322399]]]}}]}