{"type": "FeatureCollection", "features": [{"type": "Feature", "properties": {"name": "Westchester"}, "geometry": {"type": "MultiPolygon", "coordinates": [[[[-73.772305, 40.887329], [-73.772276, 40.887499], [-73.770576, 40.888399], [-73.768276, 40.887599], [-73.767276, 40.886899], [-73.767176, 40.886299], [-73.767076, 40.885399], [-73.767076, 40.884799], [-73.767076, 40.883499], [-73.766276, 40.881099], [-73.766976, 40.880099], [-73.767058, 40.880082], [-73.770876, 40.879299], [-73.775276, 40.882199], [-73.775183, 40.884066], [-73.775176, 40.884199], [-73.772831, 40.88459], [-73.772776, 40.884599], [-73.772305, 40.887329]]], [[[-73.667743, 41.128496], [-73.695949, 41.115434], [-73.727775, 41.100696], [-73.722575, 41.093596], [-73.716875, 41.087596], [-73.706163, 41.074184], [-73.694273, 41.059296], [-73.687173, 41.050697], [-73.682874, 41.045383], [-73.679973, 41.041797], [-73.675793, 41.03665], [-73.670635, 41.030298], [-73.670472, 41.030097], [-73.666722, 41.025482], [-73.662672, 41.020497], [-73.66058, 41.01829], [-73.659097, 41.016727], [-73.655444, 41.012874], [-73.655371, 41.012797], [-73.654671, 41.011697], [-73.655571, 41.007697], [-73.657502, 41.00353], [-73.659372, 40.999497], [-73.65898, 40.995576], [-73.658882, 40.9946], [-73.658772, 40.993497], [-73.659671, 40.987909], [-73.657616, 40.985499], [-73.657336, 40.985171], [-73.655972, 40.979597], [-73.659972, 40.968398], [-73.662072, 40.966198], [-73.662141, 40.966227], [-73.664472, 40.967198], [-73.66453, 40.967179], [-73.667769, 40.966132], [-73.668955, 40.965748], [-73.672897, 40.964472], [-73.674723, 40.963882], [-73.677685, 40.962923], [-73.678073, 40.962798], [-73.678076, 40.962791], [-73.679031, 40.960255], [-73.683273, 40.948998], [-73.686473, 40.945198], [-73.697974, 40.939598], [-73.702949, 40.938015], [-73.71208, 40.93511], [-73.713502, 40.934658], [-73.716987, 40.933549], [-73.721739, 40.932037], [-73.728137, 40.92755], [-73.731775, 40.924999], [-73.732159, 40.924809], [-73.736516, 40.922647], [-73.743401, 40.919233], [-73.746905, 40.917495], [-73.748659, 40.916625], [-73.749697, 40.91611], [-73.754213, 40.91387], [-73.754588, 40.913684], [-73.754741, 40.913608], [-73.754986, 40.913487], [-73.756776, 40.912599], [-73.761829, 40.907013], [-73.765411, 40.903053], [-73.778528, 40.888554], [-73.781338, 40.885447], [-73.783545, 40.88104], [-73.783702, 40.881078], [-73.792942, 40.883411], [-73.804191, 40.886348], [-73.819719, 40.890206], [-73.822959, 40.891056], [-73.823244, 40.891199], [-73.82312, 40.890648], [-73.823617, 40.890413], [-73.823557, 40.889865], [-73.824047, 40.889866], [-73.824009, 40.889978], [-73.825002, 40.890178], [-73.827224, 40.890785], [-73.830972, 40.891935], [-73.831703, 40.892178], [-73.832716, 40.892443], [-73.833595, 40.892706], [-73.835174, 40.89317], [-73.836282, 40.893531], [-73.837337, 40.893814], [-73.838407, 40.894061], [-73.838985, 40.895602], [-73.839649, 40.897891], [-73.840036, 40.900567], [-73.840999, 40.902812], [-73.841318, 40.903987], [-73.842308, 40.903988], [-73.843305, 40.90408], [-73.844389, 40.904096], [-73.844702, 40.904177], [-73.844847, 40.90531], [-73.84532, 40.905582], [-73.846104, 40.905777], [-73.847071, 40.906173], [-73.848683, 40.906743], [-73.851506, 40.906645], [-73.852204, 40.906878], [-73.852601, 40.906977], [-73.85279, 40.907073], [-73.851123, 40.910009], [-73.852678, 40.909899], [-73.854881, 40.908217], [-73.854104, 40.906679], [-73.856108, 40.90606], [-73.856324, 40.906166], [-73.858221, 40.902335], [-73.860006, 40.900565], [-73.862041, 40.901203], [-73.862643, 40.901474], [-73.86286, 40.901525], [-73.864669, 40.901793], [-73.865635, 40.902086], [-73.866952, 40.902475], [-73.867876, 40.902983], [-73.872913, 40.904467], [-73.874087, 40.904807], [-73.877855, 40.905922], [-73.878012, 40.905965], [-73.878189, 40.905983], [-73.87835, 40.905983], [-73.879239, 40.906365], [-73.880111, 40.906591], [-73.880929, 40.90683], [-73.881825, 40.907134], [-73.882993, 40.907423], [-73.884106, 40.907501], [-73.884832, 40.907723], [-73.885401, 40.907977], [-73.88601, 40.907979], [-73.886237, 40.908052], [-73.887984, 40.908593], [-73.891805, 40.909778], [-73.891928, 40.909809], [-73.892799, 40.910058], [-73.896634, 40.911324], [-73.897253, 40.911655], [-73.899505, 40.911978], [-73.900697, 40.912381], [-73.902106, 40.912879], [-73.902454, 40.912979], [-73.905947, 40.913948], [-73.910006, 40.915076], [-73.910516, 40.915282], [-73.917905, 40.917577], [-73.91768, 40.919498], [-73.91768, 40.919499], [-73.91558, 40.924898], [-73.912272, 40.935498], [-73.910396, 40.941513], [-73.90728, 40.951498], [-73.907257, 40.951562], [-73.904916, 40.958108], [-73.898928, 40.974851], [-73.896479, 40.981697], [-73.893979, 40.997197], [-73.893579, 41.005297], [-73.890079, 41.022597], [-73.889915, 41.025749], [-73.88938, 41.037597], [-73.89028, 41.045196], [-73.89038, 41.045796], [-73.89388, 41.057896], [-73.89448, 41.064596], [-73.8947, 41.069937], [-73.89478, 41.070496], [-73.894777, 41.070791], [-73.89468, 41.079596], [-73.89488, 41.082396], [-73.89378, 41.093296], [-73.891417, 41.107318], [-73.890866, 41.110583], [-73.88758, 41.128795], [-73.88718, 41.133095], [-73.887397, 41.136861], [-73.88748, 41.138295], [-73.88948, 41.145095], [-73.892481, 41.150595], [-73.895381, 41.153995], [-73.899681, 41.157295], [-73.906581, 41.161895], [-73.909281, 41.164395], [-73.911681, 41.167795], [-73.914381, 41.174195], [-73.921697, 41.186288], [-73.925682, 41.195194], [-73.927229, 41.198038], [-73.931482, 41.204994], [-73.935982, 41.209894], [-73.936782, 41.210814], [-73.939983, 41.214494], [-73.944683, 41.219594], [-73.947965, 41.223101], [-73.950947, 41.226346], [-73.953283, 41.228994], [-73.961383, 41.234194], [-73.960783, 41.239394], [-73.961283, 41.241994], [-73.964142, 41.243851], [-73.970784, 41.247893], [-73.971984, 41.251493], [-73.972284, 41.256193], [-73.971484, 41.259593], [-73.969684, 41.263193], [-73.966884, 41.267193], [-73.964184, 41.269993], [-73.957183, 41.276393], [-73.955445, 41.277862], [-73.952045, 41.280736], [-73.947483, 41.284593], [-73.945783, 41.287593], [-73.946583, 41.290993], [-73.949083, 41.292593], [-73.955183, 41.294993], [-73.964483, 41.299693], [-73.966983, 41.301693], [-73.971784, 41.307293], [-73.977484, 41.312093], [-73.980984, 41.314193], [-73.983284, 41.317393], [-73.982584, 41.321693], [-73.926846, 41.32764], [-73.918286, 41.328532], [-73.914027, 41.32897], [-73.908236, 41.329453], [-73.904794, 41.329705], [-73.89346, 41.330892], [-73.892926, 41.330983], [-73.892256, 41.330954], [-73.891427, 41.330993], [-73.890602, 41.331071], [-73.889692, 41.331176], [-73.88818, 41.331472], [-73.887763, 41.331491], [-73.8833, 41.331956], [-73.879948, 41.332623], [-73.875119, 41.332785], [-73.873801, 41.33299], [-73.86201, 41.334264], [-73.842703, 41.336198], [-73.829988, 41.337503], [-73.822273, 41.338223], [-73.816037, 41.338824], [-73.797456, 41.340647], [-73.78826, 41.341737], [-73.780007, 41.342492], [-73.772054, 41.343393], [-73.771839, 41.343417], [-73.758232, 41.344838], [-73.757605, 41.344904], [-73.753122, 41.345342], [-73.753068, 41.345346], [-73.740095, 41.346682], [-73.735816, 41.347123], [-73.734672, 41.347288], [-73.727501, 41.347991], [-73.72521, 41.348218], [-73.724035, 41.348394], [-73.719804, 41.348818], [-73.718674, 41.348933], [-73.69994, 41.350855], [-73.694765, 41.351387], [-73.689493, 41.35193], [-73.671686, 41.353857], [-73.660905, 41.354994], [-73.660619, 41.355026], [-73.659871, 41.355099], [-73.659031, 41.355183], [-73.641248, 41.356974], [-73.639056, 41.357253], [-73.628491, 41.358181], [-73.599938, 41.360802], [-73.596621, 41.361128], [-73.593929, 41.361286], [-73.572478, 41.363579], [-73.56024, 41.36485], [-73.544728, 41.366375], [-73.54595, 41.354841], [-73.548583, 41.329979], [-73.548973, 41.326297], [-73.549574, 41.315931], [-73.548929, 41.307598], [-73.549941, 41.301533], [-73.550961, 41.295422], [-73.548887, 41.292957], [-73.548148, 41.29208], [-73.526296, 41.266118], [-73.525161, 41.26477], [-73.518384, 41.256719], [-73.517453, 41.255572], [-73.491408, 41.223479], [-73.482709, 41.21276], [-73.509187, 41.200948], [-73.509487, 41.200814], [-73.512765, 41.199293], [-73.514617, 41.198434], [-73.535996, 41.188551], [-73.564759, 41.175254], [-73.564941, 41.17517], [-73.614391, 41.152915], [-73.628815, 41.146423], [-73.632153, 41.144921], [-73.639672, 41.141495], [-73.660504, 41.131848], [-73.667743, 41.128496]]]]}}]}